Title,Address,City,State,Country
Ben-Hur,Canale Monterano, Rome, Lazio, Italy
Ben-Hur,,Frosinone, Lazio, Italy
Ben-Hur,Metro-Goldwyn-Mayer Studios - 10202 W. Washington Blvd., Culver City, California, USA
Ben-Hur,Fogliano, Latina, Lazio, Italy
Ben-Hur,Arcinazzo Romano, Frosinone, Lazio, Italy
Ben-Hur,"Cinecittà Studios,  Cinecittà", Rome, Lazio, Italy
Gigi,Auberge de la Moutière - 14 Rue Moutière, Montfort-l'Amaury, Yvelines, France
Gigi,Bois de Boulogne, Paris 16, Paris, France
Gigi,Hollywood, Los Angeles, California, USA
Gigi,Jardin des Tuileries, Paris 1, Paris, France
Gigi,Jardin du Luxembourg, Paris 6, Paris, France
Gigi,Maxim's - 3 Rue Royale, Paris 8, Paris, France
Gigi,Metro-Goldwyn-Mayer Studios - 10202 W. Washington Blvd., Culver City, California, USA
Gigi,Musée Jacquemart-André - 158 Boulevard Haussmann, Paris 8, Paris, France
Gigi,Palace De Glace, Paris,, France
Gigi,Parc Monceau, Paris 8, Paris, France
Gigi,Place Furstenberg, Paris 6, Paris, France
Gigi,Pont Alexandre III, Paris 7, Paris, France
Gigi,"Tour Eiffel,  Champ de Mars", Paris 7, Paris, France
Gigi,Venice Beach, Los Angeles, California, USA
The Bridge on the River Kwai,,Kelani River,, Sri Lanka
The Bridge on the River Kwai,Ambepussa,,, Sri Lanka
The Bridge on the River Kwai,Peradeniya Botanical Gardens,, Central Province, Sri Lanka
The Bridge on the River Kwai,,Colombo, Western Province, Sri Lanka
The Bridge on the River Kwai,Government Rest House, Kitulgala,, Sri Lanka
The Bridge on the River Kwai,,Kandy, Central Province, Sri Lanka
The Bridge on the River Kwai,,,Kitulgala, Sri Lanka
The Bridge on the River Kwai,,,Mahara, Sri Lanka
The Bridge on the River Kwai,Mount Lavinia Hotel - 100 Hotel Road, Mount Lavinia, Western Province, Sri Lanka
The Bridge on the River Kwai,Kalugamuwa, Gelioya, Kandy, Sri Lanka
Around the World in Eighty Days,,Chinchón, Madrid, Spain
Around the World in Eighty Days,Plaza Mayor, Chinchón, Madrid, Spain
Around the World in Eighty Days,,Hong Kong,, China
Around the World in Eighty Days,,Newport Beach, California, USA
Around the World in Eighty Days,Yokohama, Kanagawa, Honshu, Japan
Around the World in Eighty Days,,,Bangkok, Thailand
Around the World in Eighty Days,,Toledo, Castilla-La Mancha, Spain
Around the World in Eighty Days,,Chelsea, London, UK
Around the World in Eighty Days,,Durango, Colorado, USA
Around the World in Eighty Days,Durango-Silverton Railway Line, Colorado,, USA
Around the World in Eighty Days,Hyde Park,, London, UK
Around the World in Eighty Days,"Iverson Ranch - 1 Iverson Lane,  Chatsworth", Los Angeles, California, USA
Around the World in Eighty Days,,Lawton, Oklahoma, USA
Around the World in Eighty Days,Lower Grosvenor Place, Westminster, London, UK
Around the World in Eighty Days,,,New Mexico, USA
Around the World in Eighty Days,,,,Pakistan
Around the World in Eighty Days,"Rotten Row, Hyde Park", Hyde Park, London, UK
Around the World in Eighty Days,"Rue de Castiglione,  Paris 1", Paris,, France
Around the World in Eighty Days,"Rue de Rivoli, Paris 1", Paris,, France
Around the World in Eighty Days,St. James's, London,, UK
Around the World in Eighty Days,"The Reform Club,  Pall Mall,  St. James's",, London, UK
Around the World in Eighty Days,,,,Persian Gulf
Around the World in Eighty Days,"The Grenadier Pub,  18 Wilton Row", London,, UK
Around the World in Eighty Days,5 Lower Grosvenor Place, Westminster, London, UK
Around the World in Eighty Days,Alabama Hills, Lone Pine, California, USA
Around the World in Eighty Days,Alamogordo, New Mexico, USA,
Around the World in Eighty Days,Chatsworth, Los Angeles, California, USA
Around the World in Eighty Days,Denver & Rio Grande Western Railroad, Durango, Colorado, USA
Around the World in Eighty Days,Elstree Studios, Borehamwood, Hertfordshire, UK
Around the World in Eighty Days,Gare du Nord, Paris 10, Paris, France
Around the World in Eighty Days,"Little Europe,  Backlot,  Universal Studios - 100 Universal City Plaza", Universal City, California, USA
Around the World in Eighty Days,Pall Mall, St. James's, London, UK
Around the World in Eighty Days,,Paris,, France
Around the World in Eighty Days,Place Vendôme, Paris 1, Paris, France
Around the World in Eighty Days,"RKO Studios - 780 Gower Street,  Hollywood", Los Angeles, California, USA
Around the World in Eighty Days,,San Francisco, California, USA
Around the World in Eighty Days,,San Juan Mountains, Colorado, USA
Around the World in Eighty Days,,Silverton, Colorado, USA
Around the World in Eighty Days,,Tokyo,, Japan
Around the World in Eighty Days,Upper Cheyne Row, Chelsea, London, UK
Around the World in Eighty Days,Victoria Square, Westminster, London, UK
Around the World in Eighty Days,Wellington Barracks, Westminster, London, UK
Around the World in Eighty Days,,Westminster, London, UK
Around the World in Eighty Days,White Sands Missile Range, Alamogordo, New Mexico, USA
Around the World in Eighty Days,"20th Century Fox Studios - 10201 Pico Blvd.,  Century City", Los Angeles, California, USA
Around the World in Eighty Days,Hollywood, Los Angeles, California, USA
Around the World in Eighty Days,,Mount Fuji, Shizuoka, Japan
Around the World in Eighty Days,RKO-Pathé Studios - 9336 Washington Blvd., Culver City, California, USA
Around the World in Eighty Days,Universal Studios - 100 Universal City Plaza, Universal City, California, USA
Around the World in Eighty Days,Warner Brothers Burbank Studios - 4000 Warner Boulevard, Burbank, California, USA
Marty,"187th Street and Arthur Avenue,  The Bronx", New York City, New York, USA
Marty,"The Grand Councourse,  The Bronx", New York City, New York, USA
Marty,"IRT Third Avenue Elevated Train Line,  The Bronx", New York City, New York, USA
Marty,Samuel Goldwyn Studios - 7200 Santa Monica Boulevard, West Hollywood, California, USA
Marty,"Gun Hill Road & White Plains Road, Bronx", New York City, New York, USA
On the Waterfront,,Hoboken, New Jersey, USA
On the Waterfront,Hoboken Railway Station, Hoboken, New Jersey, USA
On the Waterfront,Our Lady Of Grace Church - 400 Willow Avenue, Hoboken, New Jersey, USA
On the Waterfront,St Peter and St Paul Church - 400 Hudson Street, Hoboken, New Jersey, USA
On the Waterfront,Court Street, Hoboken, New Jersey, USA
On the Waterfront,Hoboken Waterfront, Hoboken, New Jersey, USA
On the Waterfront,Hudson Street, Hoboken, New Jersey, USA
On the Waterfront,,New York City, New York, USA
On the Waterfront,"Stevens Park,  Hudson Street", Hoboken, New Jersey, USA
On the Waterfront,Willow Avenue, Hoboken, New Jersey, USA
From Here to Eternity,Honolulu, O'ahu, Hawaii, USA
From Here to Eternity,Diamond Head, O'ahu, Hawaii, USA
From Here to Eternity,Halona Cove, O'ahu, Hawaii, USA
From Here to Eternity,"Royal Hawaiian Hotel - 2259 Kalakava Avenue,  Honolulu", O'ahu, Hawaii, USA
From Here to Eternity,"Schofield Barracks,  Wilkina Drive", O'ahu, Hawaii, USA
