Title,Address,City,State,Country
Crash,Wilmington, Los Angeles, California, USA
Million Dollar Baby,Hollywood Athletic Club - 6525 W. Sunset Blvd., Los Angeles, California, USA
Million Dollar Baby,,Las Vegas, Nevada, USA
Million Dollar Baby,Quality Coffee Shop - 1238 West 7th Street, Los Angeles, California, USA
Million Dollar Baby,"Saint Mark Catholic Church, Venice", Los Angeles, California, USA
Million Dollar Baby,Sunset Blvd. Hollywood, Los Angeles, California, USA
Million Dollar Baby,Warner Brothers Burbank Studios - 4000 Warner Boulevard, Burbank, California, USA
The Lord of the Rings: The Return of the King,Hinuera Valley, Matamata, Waikato, New Zealand
The Lord of the Rings: The Return of the King,Mt. Potts Station, Erewhon, Canterbury, New Zealand
The Lord of the Rings: The Return of the King,"Camperdown Studios, Camperdown Road,  Miramar", Wellington,, New Zealand
The Lord of the Rings: The Return of the King,Fernside, Featherston, Wairarapa, New Zealand
The Lord of the Rings: The Return of the King,Queenstown, Otago,, New Zealand
The Lord of the Rings: The Return of the King,Tongariro National Park, Central Plateau,, New Zealand
The Lord of the Rings: The Return of the King,Twizel, Canterbury,, New Zealand
The Lord of the Rings: The Return of the King,Paradise, Glenorchy, Otago, New Zealand
The Lord of the Rings: The Return of the King,Upper Hutt, Wellington,, New Zealand
The Lord of the Rings: The Return of the King,Milford Sound, Fiordland National Park, Southland, New Zealand
Chicago,"Ontario Legislature Building,  Queen's Park", Toronto, Ontario, Canada
Chicago,Parkwood Estate, Oshawa, Ontario, Canada
Chicago,Distillery District, Toronto, Ontario, Canada
Chicago,Danforth Music Hall - 147 Danforth Ave., Toronto, Ontario, Canada
Chicago,Osgoode Hall, Toronto, Ontario, Canada
Chicago,Casa Loma, Toronto, Ontario, Canada
Chicago,Canada Life Building, Toronto, Ontario, Canada
Chicago,133 Church St, Toronto, Ontario, Canada
Chicago,Elgin Theatre, Toronto, Ontario, Canada
Chicago,Parkwood Estate, Oshawa, Ontario, Canada
Chicago,,Chicago, Illinois, USA
A Beautiful Mind,,Princeton, New Jersey, USA
A Beautiful Mind,,Jersey City, New Jersey, USA
A Beautiful Mind,,Newark, New Jersey, USA
A Beautiful Mind,,Bayonne, New Jersey, USA
A Beautiful Mind,,Belleville, New Jersey, USA
A Beautiful Mind,Bronx Community College - University Avenue at West 181 Street, New York City, New York, USA
A Beautiful Mind,,East Orange, New Jersey, USA
A Beautiful Mind,Fairleigh Dickinson University - 285 Madison Avenue, Madison, New Jersey, USA
A Beautiful Mind,"Manhattan College - Manhattan College Parkway, Riverdale", New York City, New York, USA
A Beautiful Mind,Fordham University - 441 E. Fordham Road. Rose Hill, New York City, New York, USA
A Beautiful Mind,Yonkers, New York City, New York, USA
Gladiator,,,,Malta
Gladiator,Bourne Woods, Farnham, Surrey, UK
Gladiator,,Ouarzazate,, Morocco
Gladiator,Val d'Orcia, Siena, Tuscany, Italy
Gladiator,Alabama Hills, Lone Pine, California, USA
Gladiator,,Ait Benhaddou,, Morocco
Gladiator,Shepperton Studios, Shepperton, Surrey, UK
Gladiator,Atlas Corporation Studios, Ouarzazate,, Morocco
American Beauty,,Sacramento, California, USA
American Beauty,11388 Homedale Street  Brentwood, Los Angeles, California, USA
American Beauty,20105 Saticoy Rd.  Canoga Park, Los Angeles, California, USA
American Beauty,Los Angeles Police Academy - 1880 N. Academy Drive  Elysian Park, Los Angeles, California, USA
American Beauty,South Bay, Los Angeles, California, USA
American Beauty,South High School - 4801 Pacific Coast Highway, Torrance, California, USA
American Beauty,Alameda Avenue, Burbank, California, USA
American Beauty,Chatsworth, Los Angeles, California, USA
American Beauty,330 S. Windsor Blvd. Hancock Park, Los Angeles, California, USA
American Beauty,Long Beach Polytechnic High School - 1600 Atlantic Avenue, Long Beach, California, USA
American Beauty,Blondie Street  Columbia/Warner Bros. Ranch - 411 North Hollywood Way, Burbank, California, USA
American Beauty,Warner Brothers Burbank Studios - 4000 Warner Boulevard, Burbank, California, USA
Shakespeare in Love,Broughton Castle, Banbury, Oxfordshire, UK
Shakespeare in Love,Barnes, London, UK, UK
Shakespeare in Love,Holkham Hall and Estate, Norfolk, UK, UK
Shakespeare in Love,Eton College, Eton, Berkshire, UK
Shakespeare in Love,Hatfield House, Hatfield, Hertfordshire, UK
Shakespeare in Love,Shepperton Studios, Shepperton, Surrey, UK
Shakespeare in Love,Smithfield, Holborn, London, UK
Shakespeare in Love,Spitalfields, London, UK, UK
Shakespeare in Love,Whitehall, Westminster, London, UK
Titanic,Titanic wreck, Titanic Canyon, North Atlantic, Atlantic Ocean
Titanic,Fox Baja Studios, Rosarito, Baja California Norte, Mexico
Titanic,Rosarito, Baja California Norte,, Mexico
Titanic,Belmont Olympic Pool - 4000 E. Olympic Plaza, Long Beach, California, USA
Titanic,,Halifax, Nova Scotia, Canada
Titanic,,Vancouver, British Columbia, Canada
Titanic,"S.S. Lane Victory, Pier 94, San Pedro", Los Angeles, California, USA
Titanic,,Santa Clarita, California, USA
Titanic,S.S. Jeremiah O'Brien, San Francisco, California, USA
The English Patient,"Grand Hotel des Bains, Lungomare Marconi 41,  Lido", Venice, Veneto, Italy
The English Patient,,Mahdia,, Tunisia
The English Patient,Sant'Anna in Camprena  Pienza, Siena, Tuscany, Italy
The English Patient,Cinecittà Studios  Cinecittà, Rome, Lazio, Italy
The English Patient,Le Grand Hotel, Rome, Lazio, Italy
The English Patient,,Oung Jmel, Nefta, Tunisia
The English Patient,Pienza, Siena, Tuscany, Italy
The English Patient,Ripafratta, Pisa, Tuscany, Italy
The English Patient,,Rome, Lazio, Italy
The English Patient,,Sidi Bouhlel, Tozeur, Tunisia
The English Patient,,Trieste, Friuli-Venezia Giulia, Italy
The English Patient,,,Tunis, Tunisia
The English Patient,Viareggio, Lucca, Tuscany, Italy
Braveheart,Fort William, Glen Coe, Highland, UK
Braveheart,,,Arizona, USA
Braveheart,Aonach Eagach, Highland,, UK
Braveheart,Glen Nevis, Fort William, Highland, UK
Braveheart,Glen Coe,, Highland, UK
Braveheart,Loch Leven, Onich, Highland, UK
Braveheart,Ardmore Studios Herbert Road, Bray, County Wicklow, Ireland
Braveheart,Coronation Plantation,, County Wicklow, Ireland
Braveheart,Dunsoghly Castle,, County Dublin, Ireland
Braveheart,Trim Castle, Trim, County Meath, Ireland
