Title,Address,City,State,Country
Rain Man,,Las Vegas, Nevada, USA
Rain Man,,Oklahoma City, Oklahoma, USA
Rain Man,Westin Bonaventure Hotel & Suites - 404 S. Figueroa Street, Los Angeles, California, USA
Rain Man,,Cincinnati, Ohio, USA
Rain Man,Hearthstone Restaurant  18149 U.S. Highway 52, Metamora, Indiana, USA
Rain Man,Evergreen Cemetery Cemetery - 25 Alexandria Pike, Newport, Kentucky, USA
Rain Man,Pompilio's Bar and Restaurant - 600 Washington Avenue, Newport, Kentucky, USA
Rain Man,St. Anne's Convent - 1000 St. Anne Drive, Melbourne, Kentucky, USA
Rain Man,The Dixie Terminal  Fourth and Walnut Streets, Cincinnati, Ohio, USA
Rain Man,,East Walnut Hills, Ohio, USA
Rain Man,Pink Cadillac Cafe - 8221 West 3rd Street, Los Angeles, California, USA
Rain Man,,Silver Grove, Kentucky, USA
Rain Man,Wattles Mansion - 1824 N. Curson Avenue  Hollywood, Los Angeles, California, USA
The Last Emperor,Forbidden City, Dongcheng District, Beijing, China
The Last Emperor,Beijing Studios,, Beijing, China
The Last Emperor,Changchun Railway Station, Changchun, China,
The Last Emperor,"Cinecittà Studios,  Cinecittà", Rome, Lazio, Italy
The Last Emperor,,Dalian,, China
The Last Emperor,Incir De Paolis Studios, Rome, Lazio, Italy
The Last Emperor,,Manchuria,, China
The Last Emperor,Moorish Hall Palazzo dei Congressi  Salsomaggiore Terme, Parma, Emilia-Romagna, Italy
The Last Emperor,Passenger Terminal, Dalian,, China
The Last Emperor,Puppet Manchurian Imperial Palace Museum, Changchun,, China
The Last Emperor,,Rome, Lazio, Italy
The Last Emperor,Summer Palace, Beijing,, China
Platoon,,,,Philippines
Out of Africa,Shaba National Game Reserve,,, Kenya
Out of Africa,Shepperton Studios, Shepperton, Surrey, UK
Out of Africa,,,UK, UK
Amadeus,,Kromeríz,, Czech Republic
Amadeus,Barrandov Studios, Prague,, Czech Republic
Amadeus,Hradcany Square, Hradcany, Prague, Czech Republic
Amadeus,Archbishop's Palace, Kromeríz, Czech Republic,
Amadeus,Château de Guermantes, Seine-et-Marne,, France
Amadeus,"Estates Theatre, Ovocný trh 1,  Old Town", Prague,, Czech Republic
Amadeus,"Gryspek Palace,  Hradcany Square", Hradcany, Prague, Czech Republic
Amadeus,Kromeríz, Czech Republic,,
Amadeus,Malá Strana, Prague,, Czech Republic
Amadeus,Old Town, Prague,, Czech Republic
Amadeus,"Palace of the Grand Prior of the Knights of Malta,  Maltese Square", Malá Strana, Prague, Czech Republic
Amadeus,"St Giles' Church,  Husova Street", Old Town, Prague, Czech Republic
Amadeus,Wien Südbahnhof - Wiedner Gürtel 1, Favoriten, Vienna, Austria
Amadeus,Tyl Theatre, Plzen,, Czech Republic
Amadeus,Hradcanske Námestí, Hradcany, Prague, Czech Republic
Amadeus,Monte Argentario, Grosseto, Tuscany, Italy
Amadeus,Maltese Square, Malá Strana, Prague, Czech Republic
Terms of Endearment,1148 Heights Blvd., Houston, Texas, USA
Terms of Endearment,3060 Locke Lane, Houston, Texas, USA
Terms of Endearment,Brennan's Restaurant - 3300 Smith Street, Houston, Texas, USA
Terms of Endearment,River Oaks, Houston, Texas, USA
Terms of Endearment,,Texas City, Texas, USA
Terms of Endearment,Lincoln International Airport, Lincoln, Nebraska, USA
Terms of Endearment,"Bryan LGH Medical Center, West 2300 S 16th Street", Lincoln, Nebraska, USA
Terms of Endearment,,Junction City, Kansas, USA
Terms of Endearment,,Kearney, Nebraska, USA
Terms of Endearment,,Lincoln, Nebraska, USA
Terms of Endearment,,New York City, New York, USA
Terms of Endearment,University of Nebraska, Lincoln, Nebraska, USA
Gandhi,Old Town Hall, Staines, Surrey, UK
Gandhi,"Aga Khan Palace,  Nagar Rd", Pune, Maharashtra, India
Gandhi,,,Bihar, India
Gandhi,,,Maharashtra, India
Gandhi,,Mumbai, Maharashtra, India
Gandhi,,Patna, Bihar, India
Gandhi,,Pune, Maharashtra, India
Gandhi,,West Bengal, India,
Gandhi,,Amritsar, Punjab, India
Gandhi,Birla House, New Delhi, Delhi, India
Gandhi,,Bromley-by-Bow, London, UK
Gandhi,Buckingham Palace, Westminster, London, UK
Gandhi,,Calcutta, West Bengal, India
Gandhi,,,Gujarat, India
Gandhi,,Hyderabad House, Delhi, India
Gandhi,India Gate, New Delhi, Delhi, India
Gandhi,"Kingsley Hall,  Powis Road", Bromley-by-Bow, London, UK
Gandhi,Nagar Rd, Pune, Maharashtra, India
Gandhi,,New Delhi, Delhi, India
Gandhi,,Porbandar, Gujarat, India
Gandhi,Powis Road, Bromley-by-Bow, London, UK
Gandhi,,Punjab,, India
Gandhi,,Rajasthan,, India
Gandhi,,Rajpath, Delhi, India
Gandhi,,Rashtrapati Bhavan, Delhi, India
Gandhi,Red Fort, Agra, Uttar Pradesh, India
Gandhi,Shepperton Studios, Shepperton, Surrey, UK
Gandhi,Staines, Surrey, UK, UK
Gandhi,Twickenham, Middlesex, UK, UK
Gandhi,Udaipur, Rajasthan, India, UK
Chariots of Fire,The Oval Sports Centre, Bebington, Merseyside, UK
Chariots of Fire,Oyster Bar, Café Royal, Edinburgh, UK
Chariots of Fire,Sma Glen, Aberfeldy, Perth and Kinross, UK
Chariots of Fire,St. Andrews, Fife, UK, UK
Chariots of Fire,West Sands Beach, St. Andrews, Fife, UK
Chariots of Fire,Arthur's Seat, Edinburgh, UK, UK
Chariots of Fire,Assembly Hall, The Mound, Edinburgh, UK
Chariots of Fire,Birkenhead, Merseyside, UK, UK
Chariots of Fire,Broughton McDonald Church, Broughton Place, Edinburgh, UK
Chariots of Fire,Cafe Royal, Edinburgh, UK, UK
Chariots of Fire,Cambridge University, Cambridge, Cambridgeshire, UK
Chariots of Fire,Cowley Girls High School, St. Helens, Merseyside, UK
