Title,Address,City,State,Country,addrtype,addrlocat
From Here to Eternity,"Waialae Golf Course - 4997 Kahala Avenue,  Honolulu",O'ahu,Hawaii,USA,point_of_interest,APPROXIMATE
From Here to Eternity,"Waikiki Beach,  Honolulu",O'ahu,Hawaii,USA,natural_feature,APPROXIMATE
The Greatest Show on Earth,,Sarasota,Florida,USA,locality,APPROXIMATE
The Greatest Show on Earth,"Paramount Studios - 5555 Melrose Avenue, Hollywood",Los Angeles,California,USA,street_address,ROOFTOP
The Greatest Show on Earth,,Sarasota Springs,Florida,USA,locality,APPROXIMATE
The Greatest Show on Earth,,Washington,District of Columbia,USA,locality,APPROXIMATE
The Greatest Show on Earth,,Cedar City,Utah,USA,locality,APPROXIMATE
The Greatest Show on Earth,,Philadelphia,Pennsylvania,USA,locality,APPROXIMATE
An American in Paris,,Paris,,France,locality,APPROXIMATE
An American in Paris,Metro-Goldwyn-Mayer Studios - 10202 W. Washington Blvd.,Culver City,California,USA,street_address,ROOFTOP
All About Eve,,San Francisco,California,USA,locality,APPROXIMATE
All About Eve,"21 Club - 21 West 52nd Street,  Manhattan",New York City,New York,USA,route,GEOMETRIC_CENTER
All About Eve,"John Golden Theater - 252 West 45th Street,  Manhattan",New York City,New York,USA,street_address,ROOFTOP
All About Eve,Shubert Theater - 247 College Street,New Haven,Connecticut,USA,street_address,ROOFTOP
All About Eve,"Stage 11,  20th Century Fox Studios - 10201 Pico Blvd.,  Century City",Los Angeles,California,USA,street_address,ROOFTOP
All About Eve,"242 West 45th Street, Manhattan",New York City,New York,USA,street_address,ROOFTOP
All the King's Men,,Northern California,California,USA,colloquial_area,APPROXIMATE
All the King's Men,,Suisun,California,USA,route,GEOMETRIC_CENTER
All the King's Men,,Fairfield,California,USA,locality,APPROXIMATE
All the King's Men,,San Joaquin-Sacramento River Delta,California,USA,natural_feature,APPROXIMATE
All the King's Men,,Stockton,California,USA,locality,APPROXIMATE
All the King's Men,University of the Pacific,Stockton,California,USA,university,APPROXIMATE
Hamlet,Pinewood Studios,Iver Heath,Buckinghamshire,UK,premise,ROOFTOP
Hamlet,Denham Studios,Denham,Buckinghamshire,UK,route,GEOMETRIC_CENTER
Gentleman's Agreement,,Darien,Connecticut,USA,locality,APPROXIMATE
Gentleman's Agreement,"NBC Building,  Rockefeller Center,  Manhattan",New York City,New York,USA,point_of_interest,APPROXIMATE
Gentleman's Agreement,"Rockefeller Plaza, Manhattan",New York City,New York,USA,point_of_interest,APPROXIMATE
Gentleman's Agreement,"Stage 16,  20th Century Fox Studios - 10201 Pico Blvd.,  Century City",Los Angeles,California,USA,street_address,ROOFTOP
Gentleman's Agreement,"Stage 6,  20th Century Fox Studios - 10201 Pico Blvd.,  Century City",Los Angeles,California,USA,street_address,ROOFTOP
The Best Years of Our Lives,Ontario International Airport - 2900 E. Airport Drive,Ontario,California,USA,point_of_interest,APPROXIMATE
The Best Years of Our Lives,Walnut Hills High School - 3250 Victory Parkway,Cincinnati,Ohio,USA,point_of_interest,APPROXIMATE
The Best Years of Our Lives,Long Beach Airport - 4101 E. Donald Douglas Drive,Long Beach,California,USA,airport,APPROXIMATE
The Best Years of Our Lives,Los Angeles County Arboretum & Botanic Garden - 301 N. Baldwin Avenue,Arcadia,California,USA,park,APPROXIMATE
The Best Years of Our Lives,"Raleigh Studios - 5300 Melrose Avenue, Hollywood",Los Angeles,California,USA,street_address,ROOFTOP
The Best Years of Our Lives,Samuel Goldwyn Studios - 7200 Santa Monica Boulevard,West Hollywood,California,USA,street_address,RANGE_INTERPOLATED
The Best Years of Our Lives,"United Artists Studios - 7200 Santa Monica Boulevard,  Hollywood",Los Angeles,California,USA,street_address,RANGE_INTERPOLATED
The Lost Weekend,"Bellevue Hospital - 550 First Avenue,  Manhattan",New York City,New York,USA,hospital,APPROXIMATE
The Lost Weekend,"P J Clarke's Saloon - 915 Third Avenue,  East Side,  Manhattan",New York City,New York,USA,sublocality_level_1,APPROXIMATE
The Lost Weekend,Shrine Auditorium - 665 W. Jefferson Boulevard,Los Angeles,California,USA,street_address,ROOFTOP
The Lost Weekend,"East Side,  Manhattan",New York City,New York,USA,neighborhood,APPROXIMATE
The Lost Weekend,Manhattan,New York City,New York,USA,sublocality_level_1,APPROXIMATE
The Lost Weekend,"Paramount Studios - 5555 Melrose Avenue,  Hollywood",Los Angeles,California,USA,street_address,ROOFTOP
Going My Way,Saint Monica's Catholic Church - 715 California Avenue,Santa Monica,California,USA,street_address,ROOFTOP
Going My Way,"Lakeside Country Club - 4500 W. Lakeside Drive,  Toluca Lake",Los Angeles,California,USA,street_address,ROOFTOP
Going My Way,"Paramount Studios - 5555 Melrose Avenue,  Hollywood",Los Angeles,California,USA,street_address,ROOFTOP
Going My Way,Shrine Auditorium - 665 W. Jefferson Boulevard,Los Angeles,California,USA,street_address,ROOFTOP
Casablanca,,Flagstaff,Arizona,USA,locality,APPROXIMATE
Casablanca,Hotel Monte Vista,Flagstaff,Arizona,USA,route,GEOMETRIC_CENTER
Casablanca,"Metropolitan Airport - 6590 Hayvenhurst Avenue,  Van Nuys",Los Angeles,California,USA,street_address,RANGE_INTERPOLATED
Casablanca,"Waterman Drive,  Van Nuys",Los Angeles,California,USA,route,GEOMETRIC_CENTER
Casablanca,"French Street,  Warner Brothers Burbank Studios - 4000 Warner Boulevard",Burbank,California,USA,street_address,ROOFTOP
Casablanca,"Stage 7,  Warner Brothers Burbank Studios - 4000 Warner Boulevard",Burbank,California,USA,street_address,ROOFTOP
Casablanca,,Yuma,Arizona,USA,locality,APPROXIMATE
Casablanca,"Stage 11,  Warner Brothers Burbank Studios - 4000 Warner Boulevard",Burbank,California,USA,street_address,ROOFTOP
Mrs. Miniver,Metro-Goldwyn-Mayer Studios - 10202 W. Washington Blvd.,Culver City,California,USA,street_address,ROOFTOP
How Green Was My Valley,,Brent's Crags,California,USA,administrative_area_level_1,APPROXIMATE
How Green Was My Valley,,Malibu,California,USA,locality,APPROXIMATE
How Green Was My Valley,Santa Monica Mountains,Los Angeles,California,USA,point_of_interest,APPROXIMATE
How Green Was My Valley,"20th Century Fox Ranch,  Malibu Creek State Park - 1925 Las Virgenes Road",Calabasas,California,USA,street_address,ROOFTOP
How Green Was My Valley,"Stage 15,  20th Century Fox Studios - 10201 Pico Blvd.,  Century City",Los Angeles,California,USA,street_address,ROOFTOP
Rebecca,,Big Sur,California,USA,locality,APPROXIMATE
Rebecca,Point Lobos,Point Lobos State Reserve,California,USA,administrative_area_level_1,APPROXIMATE
Rebecca,,Palos Verdes,California,USA,locality,APPROXIMATE
Rebecca,Selznick International Studios - 9336 Washington Blvd.,Culver City,California,USA,street_address,ROOFTOP
Gone with the Wind,,,Georgia,USA,administrative_area_level_1,APPROXIMATE
Gone with the Wind,Bidwell Park - Manzanita Avenue,Chico,California,USA,route,GEOMETRIC_CENTER
Gone with the Wind,"Big Bear Lake, Big Bear Valley",San Bernardino National Forest,California,USA,locality,APPROXIMATE
Gone with the Wind,,North Little Rock,Arkansas,USA,locality,APPROXIMATE
Gone with the Wind,Paradise Apple Orchard,Chico,California,USA,locality,APPROXIMATE
Gone with the Wind,,Paradise,California,USA,locality,APPROXIMATE
Gone with the Wind,Selznick International Studios - 9336 Washington Blvd.,Culver City,California,USA,street_address,ROOFTOP
Gone with the Wind,,Calabasas,California,USA,locality,APPROXIMATE
Gone with the Wind,,Chico,California,USA,locality,APPROXIMATE
Gone with the Wind,Metro-Goldwyn-Mayer Studios - 10202 W. Washington Blvd.,Culver City,California,USA,street_address,ROOFTOP
Gone with the Wind,,Northern California,California,USA,colloquial_area,APPROXIMATE
Gone with the Wind,Pentz Road,Paradise,California,USA,route,GEOMETRIC_CENTER
Gone with the Wind,Woodland Hills,Los Angeles,California,USA,neighborhood,APPROXIMATE
Gone with the Wind,,Agoura Hills,California,USA,locality,APPROXIMATE
Gone with the Wind,,Agoura,California,USA,sublocality_level_1,APPROXIMATE
Gone with the Wind,"Ahmanson Ranch,  Victory Boulevard,  Lasky Mesa",West Hills,Los Angeles,California,neighborhood,APPROXIMATE
Gone with the Wind,Arroyo Boulevard,Pasadena,California,USA,route,GEOMETRIC_CENTER
Gone with the Wind,Big Bear Valley,San Bernardino National Forest,California,USA,locality,APPROXIMATE
Gone with the Wind,Busch Gardens - S. Grove Avenue,Pasadena,California,USA,locality,APPROXIMATE
Gone with the Wind,"Lasky Mesa,  West Hills",Los Angeles,California,USA,natural_feature,APPROXIMATE
Gone with the Wind,,Malibu Lake,California,USA,natural_feature,APPROXIMATE
Gone with the Wind,,Pasadena,California,USA,locality,APPROXIMATE
Gone with the Wind,Reuss Ranch,Malibu Lake,California,USA,natural_feature,APPROXIMATE
Gone with the Wind,,San Bernardino National Forest,California,USA,park,APPROXIMATE
Gone with the Wind,,Simi Valley,California,USA,locality,APPROXIMATE
Gone with the Wind,"United Artists Studios - 7200 Santa Monica Boulevard,  Hollywood",Los Angeles,California,USA,street_address,RANGE_INTERPOLATED
Gone with the Wind,West Hills,Los Angeles,California,USA,neighborhood,APPROXIMATE
Gone with the Wind,Hollywood,Los Angeles,California,USA,sublocality_level_1,APPROXIMATE
You Can't Take It With You,"Bavaria Studios,  Bavariafilmplatz 7,  Geiselgasteig",Gr?â??nwald,Bavaria,Germany,street_address,ROOFTOP
You Can't Take It With You,"Columbia/Sunset Gower Studios - 1438 N. Gower Street,  Hollywood",Los Angeles,California,USA,street_address,ROOFTOP
The Life of Emile Zola,Goff Island,Laguna Beach,California,USA,natural_feature,APPROXIMATE
The Life of Emile Zola,"Stage 1,  Warner Brothers Burbank Studios - 4000 Warner Boulevard",Burbank,California,USA,street_address,ROOFTOP
The Great Ziegfeld,Metro-Goldwyn-Mayer Studios - 10202 W. Washington Blvd.,Culver City,California,USA,street_address,ROOFTOP
Mutiny on the Bounty,,Gloucester,Massachusetts,USA,locality,APPROXIMATE
Mutiny on the Bounty,,,,French Polynesia,country,APPROXIMATE
Mutiny on the Bounty,Monterey Bay,Monterey,California,USA,natural_feature,APPROXIMATE
Crash,Wilmington,Los Angeles,California,USA,sublocality_level_1,APPROXIMATE
Million Dollar Baby,Hollywood Athletic Club - 6525 W. Sunset Blvd.,Los Angeles,California,USA,street_address,ROOFTOP
Million Dollar Baby,,Las Vegas,Nevada,USA,locality,APPROXIMATE
Million Dollar Baby,Quality Coffee Shop - 1238 West 7th Street,Los Angeles,California,USA,street_address,RANGE_INTERPOLATED
Million Dollar Baby,"Saint Mark Catholic Church, Venice",Los Angeles,California,USA,neighborhood,APPROXIMATE
Million Dollar Baby,Sunset Blvd. Hollywood,Los Angeles,California,USA,route,GEOMETRIC_CENTER
Million Dollar Baby,Warner Brothers Burbank Studios - 4000 Warner Boulevard,Burbank,California,USA,street_address,ROOFTOP
The Lord of the Rings: The Return of the King,Hinuera Valley,Matamata,Waikato,New Zealand,route,GEOMETRIC_CENTER
The Lord of the Rings: The Return of the King,Mt. Potts Station,Erewhon,Canterbury,New Zealand,administrative_area_level_1,APPROXIMATE
The Lord of the Rings: The Return of the King,"Camperdown Studios, Camperdown Road,  Miramar",Wellington,,New Zealand,route,GEOMETRIC_CENTER
The Lord of the Rings: The Return of the King,Queenstown,Otago,,New Zealand,locality,APPROXIMATE
The Lord of the Rings: The Return of the King,Twizel,Canterbury,,New Zealand,locality,APPROXIMATE
The Lord of the Rings: The Return of the King,Paradise,Glenorchy,Otago,New Zealand,point_of_interest,APPROXIMATE
The Lord of the Rings: The Return of the King,Upper Hutt,Wellington,,New Zealand,locality,APPROXIMATE
The Lord of the Rings: The Return of the King,Milford Sound,Fiordland National Park,Southland,New Zealand,natural_feature,APPROXIMATE
Chicago,"Ontario Legislature Building,  Queen's Park",Toronto,Ontario,Canada,point_of_interest,APPROXIMATE
Chicago,Parkwood Estate,Oshawa,Ontario,Canada,locality,APPROXIMATE
Chicago,Distillery District,Toronto,Ontario,Canada,neighborhood,APPROXIMATE
Chicago,Danforth Music Hall - 147 Danforth Ave.,Toronto,Ontario,Canada,street_address,ROOFTOP
Chicago,Osgoode Hall,Toronto,Ontario,Canada,point_of_interest,APPROXIMATE
Chicago,Casa Loma,Toronto,Ontario,Canada,neighborhood,APPROXIMATE
Chicago,Canada Life Building,Toronto,Ontario,Canada,premise,ROOFTOP
Chicago,133 Church St,Toronto,Ontario,Canada,street_address,ROOFTOP
Chicago,Elgin Theatre,Toronto,Ontario,Canada,locality,APPROXIMATE
Chicago,Parkwood Estate,Oshawa,Ontario,Canada,locality,APPROXIMATE
Chicago,,Chicago,Illinois,USA,locality,APPROXIMATE
A Beautiful Mind,,Princeton,New Jersey,USA,locality,APPROXIMATE
A Beautiful Mind,,Jersey City,New Jersey,USA,locality,APPROXIMATE
A Beautiful Mind,,Newark,New Jersey,USA,locality,APPROXIMATE
A Beautiful Mind,,Bayonne,New Jersey,USA,locality,APPROXIMATE
A Beautiful Mind,,Belleville,New Jersey,USA,locality,APPROXIMATE
A Beautiful Mind,Bronx Community College - University Avenue at West 181 Street,New York City,New York,USA,route,GEOMETRIC_CENTER
A Beautiful Mind,,East Orange,New Jersey,USA,locality,APPROXIMATE
A Beautiful Mind,Fairleigh Dickinson University - 285 Madison Avenue,Madison,New Jersey,USA,university,APPROXIMATE
A Beautiful Mind,"Manhattan College - Manhattan College Parkway, Riverdale",New York City,New York,USA,route,GEOMETRIC_CENTER
A Beautiful Mind,Fordham University - 441 E. Fordham Road. Rose Hill,New York City,New York,USA,neighborhood,APPROXIMATE
A Beautiful Mind,Yonkers,New York City,New York,USA,locality,APPROXIMATE
Gladiator,,,,Malta,country,APPROXIMATE
Gladiator,Bourne Woods,Farnham,Surrey,UK,natural_feature,APPROXIMATE
Gladiator,,Ouarzazate,,Morocco,locality,APPROXIMATE
Gladiator,Val d'Orcia,Siena,Tuscany,Italy,point_of_interest,APPROXIMATE
Gladiator,Alabama Hills,Lone Pine,California,USA,sublocality_level_1,APPROXIMATE
Gladiator,,Ait Benhaddou,,Morocco,point_of_interest,APPROXIMATE
Gladiator,Shepperton Studios,Shepperton,Surrey,UK,premise,ROOFTOP
Gladiator,Atlas Corporation Studios,Ouarzazate,,Morocco,locality,APPROXIMATE
American Beauty,,Sacramento,California,USA,locality,APPROXIMATE
American Beauty,11388 Homedale Street  Brentwood,Los Angeles,California,USA,street_address,ROOFTOP
American Beauty,20105 Saticoy Rd.  Canoga Park,Los Angeles,California,USA,street_address,RANGE_INTERPOLATED
American Beauty,Los Angeles Police Academy - 1880 N. Academy Drive  Elysian Park,Los Angeles,California,USA,locality,APPROXIMATE
American Beauty,South Bay,Los Angeles,California,USA,colloquial_area,APPROXIMATE
American Beauty,South High School - 4801 Pacific Coast Highway,Torrance,California,USA,point_of_interest,APPROXIMATE
American Beauty,Alameda Avenue,Burbank,California,USA,route,GEOMETRIC_CENTER
American Beauty,Chatsworth,Los Angeles,California,USA,sublocality_level_1,APPROXIMATE
American Beauty,330 S. Windsor Blvd. Hancock Park,Los Angeles,California,USA,street_address,ROOFTOP
American Beauty,Long Beach Polytechnic High School - 1600 Atlantic Avenue,Long Beach,California,USA,point_of_interest,APPROXIMATE
American Beauty,Blondie Street  Columbia/Warner Bros. Ranch - 411 North Hollywood Way,Burbank,California,USA,street_address,ROOFTOP
American Beauty,Warner Brothers Burbank Studios - 4000 Warner Boulevard,Burbank,California,USA,street_address,ROOFTOP
Shakespeare in Love,Broughton Castle,Banbury,Oxfordshire,UK,point_of_interest,APPROXIMATE
Shakespeare in Love,Barnes,London,UK,UK,premise,ROOFTOP
Shakespeare in Love,Eton College,Eton,Berkshire,UK,point_of_interest,APPROXIMATE
Shakespeare in Love,Hatfield House,Hatfield,Hertfordshire,UK,park,APPROXIMATE
Shakespeare in Love,Shepperton Studios,Shepperton,Surrey,UK,premise,ROOFTOP
Shakespeare in Love,Smithfield,Holborn,London,UK,route,GEOMETRIC_CENTER
Shakespeare in Love,Spitalfields,London,UK,UK,church,APPROXIMATE
Shakespeare in Love,Whitehall,Westminster,London,UK,route,GEOMETRIC_CENTER
Titanic,Fox Baja Studios,Rosarito,Baja California Norte,Mexico,route,GEOMETRIC_CENTER
Titanic,Rosarito,Baja California Norte,,Mexico,route,GEOMETRIC_CENTER
Titanic,Belmont Olympic Pool - 4000 E. Olympic Plaza,Long Beach,California,USA,street_address,ROOFTOP
Titanic,,Halifax,Nova Scotia,Canada,locality,APPROXIMATE
Titanic,,Vancouver,British Columbia,Canada,locality,APPROXIMATE
Titanic,"S.S. Lane Victory, Pier 94, San Pedro",Los Angeles,California,USA,sublocality_level_1,APPROXIMATE
Titanic,,Santa Clarita,California,USA,locality,APPROXIMATE
Titanic,S.S. Jeremiah O'Brien,San Francisco,California,USA,point_of_interest,APPROXIMATE
The English Patient,"Grand Hotel des Bains, Lungomare Marconi 41,  Lido",Venice,Veneto,Italy,locality,APPROXIMATE
The English Patient,,Mahdia,,Tunisia,locality,APPROXIMATE
The English Patient,Sant'Anna in Camprena  Pienza,Siena,Tuscany,Italy,locality,APPROXIMATE
The English Patient,Cinecitt?â?á Studios  Cinecitt?â?á,Rome,Lazio,Italy,route,GEOMETRIC_CENTER
The English Patient,Le Grand Hotel,Rome,Lazio,Italy,locality,APPROXIMATE
The English Patient,,Oung Jmel,Nefta,Tunisia,locality,APPROXIMATE
The English Patient,Pienza,Siena,Tuscany,Italy,locality,APPROXIMATE
The English Patient,Ripafratta,Pisa,Tuscany,Italy,locality,APPROXIMATE
The English Patient,,Rome,Lazio,Italy,locality,APPROXIMATE
The English Patient,,Sidi Bouhlel,Tozeur,Tunisia,locality,APPROXIMATE
The English Patient,,Trieste,Friuli-Venezia Giulia,Italy,locality,APPROXIMATE
The English Patient,,,Tunis,Tunisia,locality,APPROXIMATE
The English Patient,Viareggio,Lucca,Tuscany,Italy,locality,APPROXIMATE
Braveheart,Fort William,Glen Coe,Highland,UK,natural_feature,APPROXIMATE
Braveheart,,,Arizona,USA,administrative_area_level_1,APPROXIMATE
Braveheart,Aonach Eagach,Highland,,UK,natural_feature,APPROXIMATE
Braveheart,Glen Nevis,Fort William,Highland,UK,natural_feature,APPROXIMATE
Braveheart,Glen Coe,,Highland,UK,locality,APPROXIMATE
Braveheart,Loch Leven,Onich,Highland,UK,locality,APPROXIMATE
Braveheart,Ardmore Studios Herbert Road,Bray,County Wicklow,Ireland,premise,ROOFTOP
Braveheart,Coronation Plantation,,County Wicklow,Ireland,administrative_area_level_2,APPROXIMATE
Braveheart,Dunsoghly Castle,,County Dublin,Ireland,premise,ROOFTOP
Braveheart,Trim Castle,Trim,County Meath,Ireland,premise,ROOFTOP
Rain Man,,Las Vegas,Nevada,USA,locality,APPROXIMATE
Rain Man,,Oklahoma City,Oklahoma,USA,locality,APPROXIMATE
Rain Man,Westin Bonaventure Hotel & Suites - 404 S. Figueroa Street,Los Angeles,California,USA,street_address,ROOFTOP
Rain Man,,Cincinnati,Ohio,USA,locality,APPROXIMATE
Rain Man,Hearthstone Restaurant  18149 U.S. Highway 52,Metamora,Indiana,USA,locality,APPROXIMATE
Rain Man,Evergreen Cemetery Cemetery - 25 Alexandria Pike,Newport,Kentucky,USA,street_address,RANGE_INTERPOLATED
Rain Man,Pompilio's Bar and Restaurant - 600 Washington Avenue,Newport,Kentucky,USA,street_address,ROOFTOP
Rain Man,St. Anne's Convent - 1000 St. Anne Drive,Melbourne,Kentucky,USA,place_of_worship,APPROXIMATE
Rain Man,The Dixie Terminal  Fourth and Walnut Streets,Cincinnati,Ohio,USA,route,GEOMETRIC_CENTER
Rain Man,,East Walnut Hills,Ohio,USA,neighborhood,APPROXIMATE
Rain Man,Pink Cadillac Cafe - 8221 West 3rd Street,Los Angeles,California,USA,locality,APPROXIMATE
Rain Man,,Silver Grove,Kentucky,USA,locality,APPROXIMATE
Rain Man,Wattles Mansion - 1824 N. Curson Avenue  Hollywood,Los Angeles,California,USA,street_address,RANGE_INTERPOLATED
The Last Emperor,Forbidden City,Dongcheng District,Beijing,China,museum,APPROXIMATE
The Last Emperor,Beijing Studios,,Beijing,China,premise,ROOFTOP
The Last Emperor,Changchun Railway Station,Changchun,China,,train_station,APPROXIMATE
The Last Emperor,"Cinecitt?â?á Studios,  Cinecitt?â?á",Rome,Lazio,Italy,route,GEOMETRIC_CENTER
The Last Emperor,,Dalian,,China,locality,APPROXIMATE
The Last Emperor,Incir De Paolis Studios,Rome,Lazio,Italy,locality,APPROXIMATE
The Last Emperor,,Manchuria,,China,point_of_interest,APPROXIMATE
The Last Emperor,Moorish Hall Palazzo dei Congressi  Salsomaggiore Terme,Parma,Emilia-Romagna,Italy,locality,APPROXIMATE
The Last Emperor,Passenger Terminal,Dalian,,China,premise,ROOFTOP
The Last Emperor,Puppet Manchurian Imperial Palace Museum,Changchun,,China,locality,APPROXIMATE
The Last Emperor,,Rome,Lazio,Italy,locality,APPROXIMATE
The Last Emperor,Summer Palace,Beijing,,China,point_of_interest,APPROXIMATE
Platoon,,,,Philippines,country,APPROXIMATE
Out of Africa,Shepperton Studios,Shepperton,Surrey,UK,premise,ROOFTOP
Out of Africa,,,UK,UK,country,APPROXIMATE
Amadeus,,Kromer?â?¡z,,Czech Republic,locality,APPROXIMATE
Amadeus,Barrandov Studios,Prague,,Czech Republic,sublocality_level_1,APPROXIMATE
Amadeus,Hradcany Square,Hradcany,Prague,Czech Republic,neighborhood,APPROXIMATE
Amadeus,Archbishop's Palace,Kromer?â?¡z,Czech Republic,,point_of_interest,APPROXIMATE
Amadeus,Ch?â?óteau de Guermantes,Seine-et-Marne,,France,route,GEOMETRIC_CENTER
Amadeus,"Estates Theatre, Ovocn?â?¢ trh 1,  Old Town",Prague,,Czech Republic,street_address,ROOFTOP
Amadeus,"Gryspek Palace,  Hradcany Square",Hradcany,Prague,Czech Republic,neighborhood,APPROXIMATE
Amadeus,Kromer?â?¡z,Czech Republic,,,locality,APPROXIMATE
Amadeus,Mal?â?í Strana,Prague,,Czech Republic,neighborhood,APPROXIMATE
Amadeus,Old Town,Prague,,Czech Republic,neighborhood,APPROXIMATE
Amadeus,"Palace of the Grand Prior of the Knights of Malta,  Maltese Square",Mal?â?í Strana,Prague,Czech Republic,neighborhood,APPROXIMATE
Amadeus,"St Giles' Church,  Husova Street",Old Town,Prague,Czech Republic,neighborhood,APPROXIMATE
Amadeus,Wien S?â??dbahnhof - Wiedner G?â??rtel 1,Favoriten,Vienna,Austria,street_address,ROOFTOP
Amadeus,Tyl Theatre,Plzen,,Czech Republic,locality,APPROXIMATE
Amadeus,Hradcanske N?â?ímest?â?¡,Hradcany,Prague,Czech Republic,route,GEOMETRIC_CENTER
Amadeus,Monte Argentario,Grosseto,Tuscany,Italy,locality,APPROXIMATE
Amadeus,Maltese Square,Mal?â?í Strana,Prague,Czech Republic,neighborhood,APPROXIMATE
Terms of Endearment,1148 Heights Blvd.,Houston,Texas,USA,street_address,ROOFTOP
Terms of Endearment,3060 Locke Lane,Houston,Texas,USA,street_address,ROOFTOP
Terms of Endearment,Brennan's Restaurant - 3300 Smith Street,Houston,Texas,USA,street_address,ROOFTOP
Terms of Endearment,River Oaks,Houston,Texas,USA,neighborhood,APPROXIMATE
Terms of Endearment,,Texas City,Texas,USA,locality,APPROXIMATE
Terms of Endearment,Lincoln International Airport,Lincoln,Nebraska,USA,locality,APPROXIMATE
Terms of Endearment,"Bryan LGH Medical Center, West 2300 S 16th Street",Lincoln,Nebraska,USA,street_address,ROOFTOP
Terms of Endearment,,Junction City,Kansas,USA,locality,APPROXIMATE
Terms of Endearment,,Kearney,Nebraska,USA,locality,APPROXIMATE
Terms of Endearment,,Lincoln,Nebraska,USA,locality,APPROXIMATE
Terms of Endearment,,New York City,New York,USA,locality,APPROXIMATE
Terms of Endearment,University of Nebraska,Lincoln,Nebraska,USA,university,APPROXIMATE
Gandhi,Old Town Hall,Staines,Surrey,UK,locality,APPROXIMATE
Gandhi,"Aga Khan Palace,  Nagar Rd",Pune,Maharashtra,India,museum,APPROXIMATE
Gandhi,,,Bihar,India,administrative_area_level_1,APPROXIMATE
Gandhi,,,Maharashtra,India,administrative_area_level_1,APPROXIMATE
Gandhi,,Mumbai,Maharashtra,India,locality,APPROXIMATE
Gandhi,,Patna,Bihar,India,locality,APPROXIMATE
Gandhi,,Pune,Maharashtra,India,locality,APPROXIMATE
Gandhi,,West Bengal,India,,administrative_area_level_1,APPROXIMATE
Gandhi,,Amritsar,Punjab,India,locality,APPROXIMATE
Gandhi,Birla House,New Delhi,Delhi,India,premise,ROOFTOP
Gandhi,,Bromley-by-Bow,London,UK,neighborhood,APPROXIMATE
Gandhi,Buckingham Palace,Westminster,London,UK,point_of_interest,APPROXIMATE
Gandhi,,Calcutta,West Bengal,India,locality,APPROXIMATE
Gandhi,,,Gujarat,India,administrative_area_level_1,APPROXIMATE
Gandhi,,Hyderabad House,Delhi,India,sublocality_level_1,APPROXIMATE
Gandhi,India Gate,New Delhi,Delhi,India,sublocality_level_1,APPROXIMATE
Gandhi,"Kingsley Hall,  Powis Road",Bromley-by-Bow,London,UK,route,GEOMETRIC_CENTER
Gandhi,Nagar Rd,Pune,Maharashtra,India,route,GEOMETRIC_CENTER
Gandhi,,New Delhi,Delhi,India,locality,APPROXIMATE
Gandhi,,Porbandar,Gujarat,India,locality,APPROXIMATE
Gandhi,Powis Road,Bromley-by-Bow,London,UK,route,GEOMETRIC_CENTER
Gandhi,,Punjab,,India,administrative_area_level_1,APPROXIMATE
Gandhi,,Rajasthan,,India,administrative_area_level_1,APPROXIMATE
Gandhi,,Rajpath,Delhi,India,route,GEOMETRIC_CENTER
Gandhi,,Rashtrapati Bhavan,Delhi,India,point_of_interest,APPROXIMATE
Gandhi,Red Fort,Agra,Uttar Pradesh,India,route,GEOMETRIC_CENTER
Gandhi,Shepperton Studios,Shepperton,Surrey,UK,premise,ROOFTOP
Gandhi,Staines,Surrey,UK,UK,locality,APPROXIMATE
Gandhi,Twickenham,Middlesex,UK,UK,church,APPROXIMATE
Gandhi,Udaipur,Rajasthan,India,UK,locality,APPROXIMATE
Chariots of Fire,The Oval Sports Centre,Bebington,Merseyside,UK,premise,ROOFTOP
Chariots of Fire,Oyster Bar,Caf?â?® Royal,Edinburgh,UK,locality,APPROXIMATE
Chariots of Fire,Sma Glen,Aberfeldy,Perth and Kinross,UK,locality,APPROXIMATE
Chariots of Fire,St. Andrews,Fife,UK,UK,university,APPROXIMATE
Chariots of Fire,West Sands Beach,St. Andrews,Fife,UK,natural_feature,APPROXIMATE
Chariots of Fire,Arthur's Seat,Edinburgh,UK,UK,natural_feature,APPROXIMATE
Chariots of Fire,Assembly Hall,The Mound,Edinburgh,UK,route,GEOMETRIC_CENTER
Chariots of Fire,Birkenhead,Merseyside,UK,UK,locality,APPROXIMATE
Chariots of Fire,Broughton McDonald Church,Broughton Place,Edinburgh,UK,route,GEOMETRIC_CENTER
Chariots of Fire,Cambridge University,Cambridge,Cambridgeshire,UK,university,APPROXIMATE
Chariots of Fire,Cowley Girls High School,St. Helens,Merseyside,UK,locality,APPROXIMATE
Mutiny on the Bounty,Monterey Harbor,Monterey,California,USA,natural_feature,APPROXIMATE
Mutiny on the Bounty,"Sailing Ship Restaurant,  Pier 42,  The Embarcadero",San Francisco,California,USA,street_address,RANGE_INTERPOLATED
Mutiny on the Bounty,,San Miguel Island,California,USA,natural_feature,APPROXIMATE
Mutiny on the Bounty,Santa Barbara Channel,Channel Islands,California,USA,neighborhood,APPROXIMATE
Mutiny on the Bounty,Santa Catalina Island,Channel Islands,California,USA,natural_feature,APPROXIMATE
Mutiny on the Bounty,"South Beach Harbor,  South Beach",San Francisco,California,USA,natural_feature,APPROXIMATE
Mutiny on the Bounty,,,Tahiti,French Polynesia,natural_feature,APPROXIMATE
Mutiny on the Bounty,Metro-Goldwyn-Mayer Studios - 10202 W. Washington Blvd.,Culver City,California,USA,street_address,ROOFTOP
Mutiny on the Bounty,,,South Pacific,Pacific Ocean,route,GEOMETRIC_CENTER
It Happened One Night,Busch Gardens - S. Grove Avenue,Pasadena,California,USA,locality,APPROXIMATE
It Happened One Night,"Columbia/Sunset Gower Studios - 1438 N. Gower Street,  Hollywood",Los Angeles,California,USA,street_address,ROOFTOP
It Happened One Night,"Franklin Canyon Reservoir,  Santa Monica Mountains",Los Angeles,California,USA,locality,APPROXIMATE
It Happened One Night,Ventura Blvd.,Thousand Oaks,California,USA,route,GEOMETRIC_CENTER
It Happened One Night,,Santa Anita Ave in Arcadia,California,USA,route,GEOMETRIC_CENTER
Cavalcade,"Fox Movietone City,  Westwood",Los Angeles,California,USA,neighborhood,APPROXIMATE
Grand Hotel,Metro-Goldwyn-Mayer Studios - 10202 W. Washington Blvd.,Culver City,California,USA,street_address,ROOFTOP
Cimarron,Venice,Los Angeles,California,USA,neighborhood,APPROXIMATE
Cimarron,,Inglewood,California,USA,locality,APPROXIMATE
Cimarron,,Bakersfield,California,USA,locality,APPROXIMATE
Cimarron,Jasmin Quinn Ranch,Los Angeles,California,USA,locality,APPROXIMATE
Cimarron,"RKO Encino Ranch - Balboa Boulevard & Burbank Boulevard,  Encino",Los Angeles,California,USA,route,GEOMETRIC_CENTER
All Quiet on the Western Front,,Sherwood Forest,California,USA,locality,APPROXIMATE
All Quiet on the Western Front,,Malibu Lake,California,USA,natural_feature,APPROXIMATE
All Quiet on the Western Front,Irvine Ranch - 8471 N. Coast Highway,Laguna Beach,California,USA,street_address,ROOFTOP
All Quiet on the Western Front,Balboa,Newport Beach,California,USA,neighborhood,APPROXIMATE
All Quiet on the Western Front,Universal Studios - 100 Universal City Plaza,Universal City,California,USA,amusement_park,APPROXIMATE
All Quiet on the Western Front,RKO-Path?â?® Studios - 9336 Washington Blvd.,Culver City,California,USA,street_address,ROOFTOP
All Quiet on the Western Front,"Little Europe,  Backlot,  Universal Studios - 100 Universal City Plaza",Universal City,California,USA,street_address,ROOFTOP
The Broadway Melody,Metro-Goldwyn-Mayer Studios - 10202 W. Washington Blvd.,Culver City,California,USA,street_address,ROOFTOP
Sunrise,"Big Bear Lake,  Big Bear Valley",San Bernardino National Forest,California,USA,locality,APPROXIMATE
Sunrise,Lake Arrowhead,San Bernardino National Forest,California,USA,locality,APPROXIMATE
Sunrise,,,,Mexico,country,APPROXIMATE
Sunrise,,Columbia River,Oregon,USA,natural_feature,APPROXIMATE
Sunrise,"William Fox Studios - 1401 N. Western Avenue,  Hollywood",Los Angeles,California,USA,street_address,RANGE_INTERPOLATED
Sunrise,Westwood,Los Angeles,California,USA,neighborhood,APPROXIMATE
Wings,,Tucson,Arizona,USA,locality,APPROXIMATE
Wings,,Bexar County,Texas,USA,administrative_area_level_2,APPROXIMATE
Wings,Camp Bullis - Harry Wurzbach Rd,San Antonio,Texas,USA,route,GEOMETRIC_CENTER
Wings,Camp Stanley,San Antonio,Texas,USA,locality,APPROXIMATE
Wings,Fort Sam Houston,San Antonio,Texas,USA,point_of_interest,APPROXIMATE
Wings,Kelly Field,San Antonio,Texas,USA,route,APPROXIMATE
Patton,,,Timgad,Algeria,locality,APPROXIMATE
Patton,,Almer?â?¡a,Andaluc?â?¡a,Spain,locality,APPROXIMATE
Patton,,,,Greece,country,APPROXIMATE
Patton,La Granja,Segovia,Castilla y Le?â??n,Spain,locality,APPROXIMATE
Patton,,Sierra de Urbasa,Navarra,Spain,natural_feature,APPROXIMATE
Patton,,,Casablanca,Morocco,locality,APPROXIMATE
Patton,,,Crete,Greece,administrative_area_level_1,APPROXIMATE
Patton,,,Rabat,Morocco,locality,APPROXIMATE
Patton,,Volubilis,Mekn?â?¿s,Morocco,point_of_interest,APPROXIMATE
Midnight Cowboy,Holy Name Cemetery,Jersey City,New Jersey,USA,cemetery,APPROXIMATE
Midnight Cowboy,"114 East 72nd Street,  Manhattan",New York City,New York,USA,street_address,ROOFTOP
Midnight Cowboy,,Big Spring,Texas,USA,locality,APPROXIMATE
Midnight Cowboy,"Filmways Studios - 246 East 127th Street,  East Harlem,  Manhattan",New York City,New York,USA,street_address,RANGE_INTERPOLATED
Midnight Cowboy,,Miami,Florida,USA,locality,APPROXIMATE
Midnight Cowboy,,Stanton,Texas,USA,locality,APPROXIMATE
Midnight Cowboy,,Sweetwater,Texas,USA,locality,APPROXIMATE
Midnight Cowboy,"Times Square,  Manhattan",New York City,New York,USA,neighborhood,APPROXIMATE
Midnight Cowboy,,,Florida,USA,administrative_area_level_1,APPROXIMATE
Midnight Cowboy,,Hollywood,Florida,USA,locality,APPROXIMATE
Midnight Cowboy,Lincoln Tunnel,New York City,New York,USA,point_of_interest,APPROXIMATE
Midnight Cowboy,Mercer Street,New York City,New York,USA,route,GEOMETRIC_CENTER
Midnight Cowboy,,Miami Beach,Florida,USA,locality,APPROXIMATE
Midnight Cowboy,,,New Jersey,USA,administrative_area_level_1,APPROXIMATE
Oliver!,Shepperton Studios,Shepperton,Surrey,UK,premise,ROOFTOP
In the Heat of the Night,,Sparta,Illinois,USA,locality,APPROXIMATE
In the Heat of the Night,,Chester,Illinois,USA,locality,APPROXIMATE
In the Heat of the Night,,Freeburg,Illinois,USA,locality,APPROXIMATE
In the Heat of the Night,,Belleville,Illinois,USA,locality,APPROXIMATE
In the Heat of the Night,,Dyersburg,Tennessee,USA,locality,APPROXIMATE
In the Heat of the Night,"Raleigh Studios - 5300 Melrose Avenue,  Hollywood",Los Angeles,California,USA,street_address,ROOFTOP
A Man for All Seasons,Hampton Court Palace,East Molesey,Surrey,UK,point_of_interest,APPROXIMATE
A Man for All Seasons,"Studley Priory,  Horton Hill",Horton-cum-Studley,Oxfordshire,UK,route,GEOMETRIC_CENTER
A Man for All Seasons,Beaulieu River,,Hampshire,UK,natural_feature,APPROXIMATE
A Man for All Seasons,Beaulieu,Brockenhurst,Hampshire,UK,locality,APPROXIMATE
A Man for All Seasons,Beauline Abbey,,Hampshire,UK,administrative_area_level_2,APPROXIMATE
A Man for All Seasons,Brockenhurst,,Hampshire,UK,locality,APPROXIMATE
A Man for All Seasons,Shepperton Studios,Shepperton,Surrey,UK,premise,ROOFTOP
The Sound of Music,Schloss Fuschl,Fuschl,Salzburg,Austria,locality,APPROXIMATE
The Sound of Music,Mondsee Cathedral,Mondsee,Upper Austria,Austria,locality,APPROXIMATE
The Sound of Music,,Felsenreitschule,Salzburg,Austria,premise,ROOFTOP
The Sound of Music,,Mondsee,Upper Austria,Austria,locality,APPROXIMATE
The Sound of Music,"Schloss Hellbrunn,  F?â??rstenweg,  Hellbrunn",Salzburg,Salzburg,Austria,route,GEOMETRIC_CENTER
The Sound of Music,,Mozart Steg,Salzburg,Austria,route,GEOMETRIC_CENTER
The Sound of Music,Nonnberg Abbey,Salzburg,Salzburg,Austria,locality,APPROXIMATE
The Sound of Music,,St. Gilgen,Salzburg,Austria,locality,APPROXIMATE
The Sound of Music,,Wolfgangsee,Salzkammergut,Austria,point_of_interest,APPROXIMATE
The Sound of Music,Bertelsmann,Salzburg,Salzburg,Austria,locality,APPROXIMATE
The Sound of Music,,Bischofshofen,Salzburg,Austria,locality,APPROXIMATE
The Sound of Music,,Mirabell Gardens,Salzburg,Austria,point_of_interest,APPROXIMATE
The Sound of Music,Obersalzberg,Berchtesgaden,Bavaria,Germany,natural_feature,APPROXIMATE
The Sound of Music,Residenz Fountain,Residenzplatz,Salzburg,Austria,point_of_interest,APPROXIMATE
The Sound of Music,Residenzplatz,Salzburg,Salzburg,Austria,point_of_interest,APPROXIMATE
The Sound of Music,,Schloss Frohnburg,Salzburg,Austria,point_of_interest,APPROXIMATE
The Sound of Music,Schloss Hohenwerfen,Werfen,Salzburg,Austria,point_of_interest,APPROXIMATE
The Sound of Music,"Stage 15,  20th Century Fox Studios - 10201 Pico Blvd.,  Century City",Los Angeles,California,USA,street_address,ROOFTOP
The Sound of Music,,Werfen,Salzburg,Austria,locality,APPROXIMATE
My Fair Lady,Warner Brothers Burbank Studios - 4000 Warner Boulevard,Burbank,California,USA,street_address,ROOFTOP
Tom Jones,,Bridgwater,Somerset,UK,locality,APPROXIMATE
Tom Jones,,Dorset,,UK,administrative_area_level_2,APPROXIMATE
Tom Jones,,Somerset,,UK,administrative_area_level_2,APPROXIMATE
Lawrence of Arabia,Imperial Sand Dunes Recreation Area,Glamis,California,USA,natural_feature,APPROXIMATE
Lawrence of Arabia,,Ait Benhaddou,,Morocco,point_of_interest,APPROXIMATE
Lawrence of Arabia,Alfonso XIII Hotel - 2 San Fernando 41004,Sevilla,Andaluc?â?¡a,Spain,postal_code,APPROXIMATE
Lawrence of Arabia,,A?â?»t Benhaddou,,Morocco,locality,APPROXIMATE
Lawrence of Arabia,"El Casino,  Avenida de Maria Luisa",Sevilla,Andaluc?â?¡a,Spain,route,GEOMETRIC_CENTER
Lawrence of Arabia,,Playa del Algorocibo,Andaluc?â?¡a,Spain,natural_feature,APPROXIMATE
Lawrence of Arabia,Chobham Common,Surrey,,UK,route,GEOMETRIC_CENTER
Lawrence of Arabia,,El Jafr,,Jordan,locality,APPROXIMATE
Lawrence of Arabia,,Ouarzazate,,Morocco,locality,APPROXIMATE
Lawrence of Arabia,Plaza de Espa?â??a,Sevilla,Andaluc?â?¡a,Spain,premise,ROOFTOP
Lawrence of Arabia,,Wadi Rum,,Jordan,point_of_interest,APPROXIMATE
Lawrence of Arabia,Desierto de Tabernas,Almer?â?¡a,Andaluc?â?¡a,Spain,park,APPROXIMATE
Lawrence of Arabia,"Genovese Beach,  San Jos?â?®",Almer?â?¡a,Andaluc?â?¡a,Spain,locality,APPROXIMATE
Lawrence of Arabia,,Merthyr Mawr,Bridgend,UK,locality,APPROXIMATE
Lawrence of Arabia,"Parque de Maria Luisa,  Avenida de Isabel la Catolica",Sevilla,Andaluc?â?¡a,Spain,locality,APPROXIMATE
Lawrence of Arabia,Tabernas,Almer?â?¡a,Andaluc?â?¡a,Spain,locality,APPROXIMATE
Lawrence of Arabia,Cabo de Gata,Almer?â?¡a,Andaluc?â?¡a,Spain,locality,APPROXIMATE
Lawrence of Arabia,"Casa de Pilatos,  Plaza de Pilatos",Sevilla,Andaluc?â?¡a,Spain,point_of_interest,APPROXIMATE
Lawrence of Arabia,"El Algarrobico Beach,  Carboneras",Almer?â?¡a,Andaluc?â?¡a,Spain,locality,APPROXIMATE
Lawrence of Arabia,,Maan,,Jordan,locality,APPROXIMATE
Lawrence of Arabia,"Palacio Espanol,  Plaza de Espa?â??a,  Sevilla",Sevilla,Andaluc?â?¡a,Spain,locality,APPROXIMATE
Lawrence of Arabia,Plaza de Pilatos,Sevilla,Andaluc?â?¡a,Spain,route,GEOMETRIC_CENTER
Lawrence of Arabia,Plaza of the Americas,Sevilla,Andaluc?â?¡a,Spain,route,GEOMETRIC_CENTER
Lawrence of Arabia,San Jos?â?®,Almer?â?¡a,Andaluc?â?¡a,Spain,locality,APPROXIMATE
Lawrence of Arabia,Shepperton Studios,Shepperton,Surrey,UK,premise,ROOFTOP
Lawrence of Arabia,St. Paul's Cathedral,Ludgate Hill,London,UK,route,GEOMETRIC_CENTER
Lawrence of Arabia,Avenida de Isabel la Catolica,Sevilla,Andaluc?â?¡a,Spain,route,GEOMETRIC_CENTER
Lawrence of Arabia,Carboneras,Almer?â?¡a,Andaluc?â?¡a,Spain,locality,APPROXIMATE
West Side Story,"110th Street,  Manhattan",New York City,New York,USA,route,GEOMETRIC_CENTER
West Side Story,"61st Street,  Manhattan",New York City,New York,USA,route,GEOMETRIC_CENTER
West Side Story,Samuel Goldwyn Studios - 7200 Santa Monica Boulevard,West Hollywood,California,USA,street_address,RANGE_INTERPOLATED
West Side Story,"Church of Saint Paul the Apostle,  Columbus Avenue & West 60th Street",New York City,New York,USA,route,GEOMETRIC_CENTER
The Apartment,"Majestic Theater,  247 West 44th Street,  Manhattan",New York City,New York,USA,street_address,ROOFTOP
The Apartment,The Lot - 1041 N. Formosa Avenue,West Hollywood,California,USA,street_address,ROOFTOP
The Apartment,205 Columbus Avenue,New York City,New York,USA,street_address,ROOFTOP
The Apartment,"59th Street,  Manhattan",New York City,New York,USA,route,GEOMETRIC_CENTER
Ben-Hur,"Corner of Via di Salone and Via delle Case Rosse,  Salone Caves",Rome,Lazio,Italy,locality,APPROXIMATE
Ben-Hur,the roman fra hippodrome,Tyre,,Lebanon,locality,APPROXIMATE
Ben-Hur,,Anzio,,Italy,locality,APPROXIMATE
Rocky,1124 Jackson street,Philadelphia,Pennsylvania,USA,street_address,ROOFTOP
Rocky,South 11th street & Cantrell st,Philadelphia,Pennsylvania,USA,intersection,APPROXIMATE
Rocky,Ice Capades Chalet - 500 Broadway,Santa Monica,California,USA,street_address,ROOFTOP
One Flew Over the Cuckoo's Nest,Oregon State Mental Hospital - 2600 Center Street NE,Salem,Oregon,USA,street_address,ROOFTOP
One Flew Over the Cuckoo's Nest,,Depoe Bay,Oregon,USA,locality,APPROXIMATE
One Flew Over the Cuckoo's Nest,,Fort Bragg,California,USA,locality,APPROXIMATE
One Flew Over the Cuckoo's Nest,,Salem,Oregon,USA,locality,APPROXIMATE
The Godfather: Part II,Kaiser Estate,Lake Tahoe,California,USA,natural_feature,APPROXIMATE
The Godfather: Part II,El Embajador Hotel,Santo Domingo,,Dominican Republic,route,APPROXIMATE
The Godfather: Part II,Trieste,Friuli-Venezia Giulia,,Italy,locality,APPROXIMATE
The Godfather: Part II,Forza d'Agr?â??,Messina,Sicily,Italy,locality,APPROXIMATE
The Godfather: Part II,,Miami,Florida,USA,locality,APPROXIMATE
The Godfather: Part II,,New York City,New York,USA,locality,APPROXIMATE
The Godfather: Part II,2045 N. Hibiscus Drive,North Miami,Florida,USA,street_address,ROOFTOP
The Godfather: Part II,"6th Street,  Manhattan",New York City,New York,USA,route,GEOMETRIC_CENTER
The Godfather: Part II,"East Village,  Manhattan",New York City,New York,USA,neighborhood,APPROXIMATE
The Godfather: Part II,"Greenwich Village,  Manhattan",New York City,New York,USA,neighborhood,APPROXIMATE
The Godfather: Part II,,Lake Tahoe,California,USA,natural_feature,APPROXIMATE
The Godfather: Part II,"Vazak's Bar - 108 Avenue B,  East Village, Manhattan",New York City,New York,USA,street_address,ROOFTOP
The Godfather: Part II,"Tomkin's Square, Greenwich Village, Manhattan",New York City,New York,USA,neighborhood,APPROXIMATE
The Godfather: Part II,Riva Nazario Sauro,Trieste,Friuli-Venezia Giulia,Italy,route,GEOMETRIC_CENTER
The Godfather: Part II,Hotel Washington - 515 15th Street,Washington,District of Columbia,USA,street_address,ROOFTOP
The Godfather: Part II,,Las Vegas,Nevada,USA,locality,APPROXIMATE
The Godfather: Part II,,Los Angeles,California,USA,locality,APPROXIMATE
The Sting,Hugus Alley,Pasadena,California,USA,route,GEOMETRIC_CENTER
The Sting,Union Station - Canal St. & Jackson Blvd. Near West Side,Chicago,Illinois,USA,route,GEOMETRIC_CENTER
The Sting,Miller Alley,Pasadena,California,USA,route,GEOMETRIC_CENTER
The Sting,Castle Green Apartments - 99 S. Raymond,Pasadena,California,USA,locality,APPROXIMATE
The Sting,"LaSalle Street Station - 141 W. Van Buren Street,  Downtown",Chicago,Illinois,USA,locality,APPROXIMATE
The Sting,"Biltmore Hotel - 506 S. Grand Avenue,  Downtown",Los Angeles,California,USA,street_address,ROOFTOP
The Sting,"Stage 28, Universal Studios - 100 Universal City Plaza",Universal City,California,USA,street_address,ROOFTOP
The Sting,"Stage 32, Universal Studios - 100 Universal City Plaza",Universal City,California,USA,street_address,ROOFTOP
The Sting,"Penn Central Freight Yards,  Near West Side",Chicago,Illinois,USA,neighborhood,APPROXIMATE
The Sting,"Brownstone Street,  Backlot,  Universal Studios - 100 Universal City Plaza",Universal City,California,USA,street_address,ROOFTOP
The Sting,"New York Street,  Backlot,  Universal Studios - 100 Universal City Plaza",Universal City,California,USA,street_address,ROOFTOP
The Sting,Santa Monica Pier,Santa Monica,California,USA,route,GEOMETRIC_CENTER
The Sting,"Stage 27,  Universal Studios - 100 Universal City Plaza",Universal City,California,USA,street_address,ROOFTOP
The Sting,"Winston St. & Werdin Pl.,  Downtown",Los Angeles,California,USA,intersection,APPROXIMATE
The Godfather,Forza d'Agr?â??,Messina,Sicily,Italy,locality,APPROXIMATE
The Godfather,110 Longfellow Road,Staten Island,New York,USA,street_address,ROOFTOP
The Godfather,,Savoca,Sicily,Italy,locality,APPROXIMATE
The Godfather,Jack Dempsey's Restaurant - Broadway & 49th Street  Manhattan,New York City,New York,USA,route,GEOMETRIC_CENTER
The Godfather,Old St Patrick's Cathedral - 264 Mulberry Street  Little Italy,New York City,New York,USA,street_address,RANGE_INTERPOLATED
The Godfather,"Castello Degli Schiavi, Fiumefreddo di Sicilia",Catania,Sicily,Italy,locality,APPROXIMATE
The Godfather,"Mitchell Field,  Garden City",Long Island,New York,USA,locality,APPROXIMATE
The Godfather,,Ross,California,USA,locality,APPROXIMATE
The Godfather,Beverly House - 1011 N. Beverly Drive,Beverly Hills,California,USA,street_address,ROOFTOP
The Godfather,"3531 White Plains Road,  Bronx",New York City,New York,USA,street_address,ROOFTOP
The Godfather,"5th Avenue,  Manhattan",New York City,New York,USA,point_of_interest,APPROXIMATE
The Godfather,Federal Reserve Bank - 33 Liberty Street,New York City,New York,USA,street_address,ROOFTOP
The Godfather,"Fieldstone Mansion,  Riverdale, Bronx",New York City,New York,USA,neighborhood,APPROXIMATE
The Godfather,"Mott Street, Manhattan",New York City,New York,USA,route,GEOMETRIC_CENTER
The Godfather,Sands Point,Long Island,New York,USA,locality,APPROXIMATE
The Godfather,"St Regis-Sheraton Hotel - 2 East 55th Street,  Fifth Avenue, Manhattan",New York City,New York,USA,route,GEOMETRIC_CENTER
The Godfather,Staten Island,New York City,New York,USA,sublocality_level_1,APPROXIMATE
The Godfather,"Woodside, Queens",New York City,New York,USA,neighborhood,APPROXIMATE
The Godfather,"Little Italy, Manhattan",New York City,New York,USA,neighborhood,APPROXIMATE
The Godfather,"NY Eye and Ear Infirmary, 2nd Avenue & East 13th Street",New York City,New York,USA,route,GEOMETRIC_CENTER
The Godfather,"Mount Loretto, Staten Island",New York City,New York,USA,natural_feature,APPROXIMATE
The Godfather,"120 Longfellow Road, Emerson Hill, Staten Island",New York City,New York,USA,street_address,ROOFTOP
The Godfather,"59th Street Bridge, Manhattan",New York City,New York,USA,route,GEOMETRIC_CENTER
The Godfather,"Edison Hotel - 228 West 47th Street, Manhattan",New York City,New York,USA,street_address,ROOFTOP
The Godfather,"Calvary Cemetery,  Woodside,  Queens",New York City,New York,USA,cemetery,APPROXIMATE
The Godfather,"Filmways Studios - 246 East 127th Street,  East Harlem,  Manhattan",New York City,New York,USA,street_address,RANGE_INTERPOLATED
The Godfather,"First United Methodist Church - 6817 Franklin Avenue,  Hollywood",Los Angeles,California,USA,street_address,ROOFTOP
The Godfather,,Jersey City,New Jersey,USA,locality,APPROXIMATE
The Godfather,,Las Vegas,Nevada,USA,locality,APPROXIMATE
The Godfather,Long Beach,Long Island,New York,USA,route,GEOMETRIC_CENTER
The Godfather,New York County Courthouse - 60 Centre Street,New York City,New York,USA,point_of_interest,APPROXIMATE
The Godfather,"Queensboro Bridge,  Manhattan",New York City,New York,USA,point_of_interest,APPROXIMATE
The Godfather,"Radio City Music Hall - 1260 6th Avenue,  Rockefeller Center,  Manhattan",New York City,New York,USA,point_of_interest,APPROXIMATE
The Godfather,"Riverdale,  Bronx",New York City,New York,USA,neighborhood,APPROXIMATE
The Godfather,Liberty State Park - Morris Pesin Drive,Jersey City,New Jersey,USA,airport,APPROXIMATE
The Godfather,Hollywood,Los Angeles,California,USA,sublocality_level_1,APPROXIMATE
The French Connection,,Marseille,Bouches-du-Rh?â??ne,France,locality,APPROXIMATE
The French Connection,Ch?â?óteau d'If,Marseille,Bouches-du-Rh?â??ne,France,point_of_interest,APPROXIMATE
The French Connection,Le Copain 891 1st Ave,New York City,New York,USA,street_address,ROOFTOP
The French Connection,Brooklyn Bridge,New York City,New York,USA,point_of_interest,APPROXIMATE
The French Connection,"86th Street,  Brooklyn",New York City,New York,USA,route,GEOMETRIC_CENTER
The French Connection,"Roosevelt Hotel - 45th Street & Madison Avenue,  Manhattan",New York City,New York,USA,route,GEOMETRIC_CENTER
The French Connection,"Westbury Hotel - 15 East 69th Street,  Manhattan",New York City,New York,USA,street_address,ROOFTOP
The French Connection,Rue du Vallon des Auffes,Marseille,Bouches-du-Rh?â??ne,France,route,GEOMETRIC_CENTER
The French Connection,Chez Fonfon - 140 Rue du Vallon des Auffes,Marseille,Bouches-du-Rh?â??ne,France,street_address,RANGE_INTERPOLATED
The French Connection,La samaritaine - 2 Quai du Vieux-Port,Marseille,Bouches-du-Rh?â??ne,France,point_of_interest,APPROXIMATE
The French Connection,Quai du Vieux Port,Marseille,Bouches-du-Rh?â??ne,France,point_of_interest,APPROXIMATE
The French Connection,Mont?â?®e des Accoules,Marseille,Bouches-du-Rh?â??ne,France,route,GEOMETRIC_CENTER
The French Connection,Rue Baussenque,Marseille,Bouches-du-Rh?â??ne,France,route,GEOMETRIC_CENTER
The French Connection,Rue du Panier,Marseille,Bouches-du-Rh?â??ne,France,route,GEOMETRIC_CENTER
The French Connection,"91 Wyckoff Avenue,  Bushwick,  Brooklyn",New York City,New York,USA,street_address,ROOFTOP
The French Connection,"Forest Avenue,  Ridgewood,  Queens",New York City,New York,USA,route,GEOMETRIC_CENTER
The French Connection,"Grand Central Station Shuttle,  Manhattan",New York City,New York,USA,sublocality_level_1,APPROXIMATE
The French Connection,"Onderdonk Avenue,  Ridgewood,  Queens",New York City,New York,USA,route,GEOMETRIC_CENTER
The French Connection,Plage du bestouan,Cassis,Bouches-du-Rh?â??ne,France,point_of_interest,APPROXIMATE
The French Connection,"Putnam Avenue,  Ridgewood,  Queens",New York City,New York,USA,route,GEOMETRIC_CENTER
The French Connection,"Randall's Island,  East River",New York City,New York,USA,route,GEOMETRIC_CENTER
The French Connection,,Washington,District of Columbia,USA,locality,APPROXIMATE
Patton,Cabo de Gata,Almer?â?¡a,Andaluc?â?¡a,Spain,locality,APPROXIMATE
Patton,"Bob Hope Patriotic Hall - 1816 S. Figueroa Street,  Downtown",Los Angeles,California,USA,street_address,ROOFTOP
Patton,,,,Italy,country,APPROXIMATE
Patton,Over Peover,Knutsford,Cheshire,UK,locality,APPROXIMATE
Braveheart,Bective Abbey,,County Meath,Ireland,premise,ROOFTOP
Braveheart,King John's Castle,Trim,County Meath,Ireland,locality,APPROXIMATE
Braveheart,Sally's Gap,,County Wicklow,Ireland,locality,APPROXIMATE
Braveheart,Ballymore Eustace,,County Kildare,Ireland,locality,APPROXIMATE
Braveheart,Curragh Plains,,County Kildare,Ireland,route,GEOMETRIC_CENTER
Braveheart,Dunsany Castle,,County Meath,Ireland,neighborhood,APPROXIMATE
Braveheart,Luggala Estate,,County Wicklow,Ireland,premise,ROOFTOP
Braveheart,St Margarets,Dublin,County Dublin,Ireland,locality,APPROXIMATE
Braveheart,The Curragh,,County Kildare,Ireland,neighborhood,APPROXIMATE
Braveheart,Trim,,County Meath,Ireland,locality,APPROXIMATE
Forrest Gump,Chippewa Square,Savannah,Georgia,USA,park,APPROXIMATE
Forrest Gump,Beaufort,,South Carolina,USA,locality,APPROXIMATE
Forrest Gump,Biltmore Estate - 1 Approach Road,Asheville,North Carolina,USA,street_address,ROOFTOP
Forrest Gump,Monument Valley,,Utah,USA,locality,APPROXIMATE
Forrest Gump,Grandfather Mountain,Linville,North Carolina,USA,point_of_interest,APPROXIMATE
Forrest Gump,Bluff Plantation - 3547 Combahee Road,Yemassee,South Carolina,USA,street_address,ROOFTOP
Forrest Gump,,Fripp Island,South Carolina,USA,natural_feature,APPROXIMATE
Forrest Gump,,Port Clyde,Maine,USA,sublocality_level_1,APPROXIMATE
Forrest Gump,,Pritchardville,South Carolina,USA,locality,APPROXIMATE
Forrest Gump,Valley of the Gods,Mexican Hat,Utah,USA,route,GEOMETRIC_CENTER
Forrest Gump,,Flagstaff,Arizona,USA,locality,APPROXIMATE
Forrest Gump,,Pemaquid,Maine,USA,locality,APPROXIMATE
Forrest Gump,,Twin Arrows,Arizona,USA,route,GEOMETRIC_CENTER
Forrest Gump,,Blackfeet Indian Reservation,Montana,USA,political,APPROXIMATE
Forrest Gump,,Orange,California,USA,locality,APPROXIMATE
Forrest Gump,Santa Monica Pier,Santa Monica,California,USA,route,GEOMETRIC_CENTER
Forrest Gump,,Varnville,South Carolina,USA,locality,APPROXIMATE
Forrest Gump,Glacier National Park,,Montana,USA,park,APPROXIMATE
Forrest Gump,Lincoln Memorial  National Mall,Washington,District of Columbia,USA,locality,APPROXIMATE
Forrest Gump,University of Southern California,Los Angeles,California,USA,university,APPROXIMATE
Forrest Gump,East Los Angeles College - 1301 Avenida Cesar Chavez,Monterey Park,California,USA,point_of_interest,APPROXIMATE
Forrest Gump,Paramount Studios - 5555 Melrose Avenue  Hollywood,Los Angeles,California,USA,street_address,ROOFTOP
Forrest Gump,Grauman's Chinese Theater - 6925 Hollywood Blvd.  Hollywood,Los Angeles,California,USA,street_address,ROOFTOP
Forrest Gump,The Ebell of Los Angeles - 743 South Lucerne Bouelvard,Los Angeles,California,USA,locality,APPROXIMATE
Forrest Gump,Marks Hall - 612 W. 35th Place University of Southern California,Los Angeles,California,USA,university,APPROXIMATE
Forrest Gump,Ambassador Hotel - 3400 Wilshire Boulevard,Los Angeles,California,USA,street_address,RANGE_INTERPOLATED
Forrest Gump,Monument Valley,,Arizona,USA,locality,APPROXIMATE
Schindler's List,Auschwitz-Birkenau Concentration Camp,Oswiecim,Malopolskie,Poland,locality,APPROXIMATE
Schindler's List,Plasz?â??w,Krak?â??w,Malopolskie,Poland,neighborhood,APPROXIMATE
Schindler's List,Szeroka,Krak?â??w,Malopolskie,Poland,route,GEOMETRIC_CENTER
Schindler's List,J?â??zefa,Krak?â??w,Malopolskie,Poland,route,GEOMETRIC_CENTER
Schindler's List,Most Pilsudskiego,Krak?â??w,Malopolskie,Poland,route,GEOMETRIC_CENTER
Schindler's List,,Jerusalem,,Israel,locality,APPROXIMATE
Unforgiven,,Brooks,Alberta,Canada,locality,APPROXIMATE
Unforgiven,,Longview,Alberta,Canada,locality,APPROXIMATE
Unforgiven,,Drumheller,Alberta,Canada,locality,APPROXIMATE
Unforgiven,,High River,Alberta,Canada,locality,APPROXIMATE
Unforgiven,Red Hills Ranch,Sonora,California,USA,locality,APPROXIMATE
Unforgiven,,Calgary,Alberta,Canada,locality,APPROXIMATE
The Silence of the Lambs,,Pittsburgh,Pennsylvania,USA,locality,APPROXIMATE
The Silence of the Lambs,Western Center - 333 Curry Hill Rd.,Canonsburg,Pennsylvania,USA,route,GEOMETRIC_CENTER
The Silence of the Lambs,,Clay County,West Virginia,USA,administrative_area_level_2,APPROXIMATE
The Silence of the Lambs,,Bellaire,Ohio,USA,locality,APPROXIMATE
The Silence of the Lambs,Bimini Airport,South Bimini Island,Bimini Islands,Bahamas,natural_feature,APPROXIMATE
The Silence of the Lambs,Carnegie Museum of Natural History - 4400 Forbes Avenue,Pittsburgh,Pennsylvania,USA,point_of_interest,APPROXIMATE
The Silence of the Lambs,Front St,Glenwillard,Pennsylvania,USA,route,GEOMETRIC_CENTER
The Silence of the Lambs,Lindbergh Avenue,Shaler Township,Pennsylvania,USA,route,GEOMETRIC_CENTER
The Silence of the Lambs,,McKeesport,Pennsylvania,USA,locality,APPROXIMATE
The Silence of the Lambs,,Memphis,Tennessee,USA,locality,APPROXIMATE
The Silence of the Lambs,,Washington,District of Columbia,USA,locality,APPROXIMATE
The Silence of the Lambs,8 Circle Street,Perryopolis,Pennsylvania,USA,street_address,ROOFTOP
The Silence of the Lambs,Department of Labor Frances Perkins Building - 200 Constitution Avenue NW,Washington,District of Columbia,USA,street_address,ROOFTOP
The Silence of the Lambs,E 8th Ave & Amity St,Homestead,Pennsylvania,USA,intersection,APPROXIMATE
The Silence of the Lambs,FBI Academy,Quantico,Virginia,USA,locality,APPROXIMATE
The Silence of the Lambs,Lambert International Airport - 10701 Lambert International Boulevard,St. Louis,Missouri,USA,airport,APPROXIMATE
The Silence of the Lambs,,Layton,Pennsylvania,USA,locality,APPROXIMATE
The Silence of the Lambs,Main Street West,Rural Valley,Pennsylvania,USA,route,GEOMETRIC_CENTER
The Silence of the Lambs,Old Allegheny County Jail - 5th Ave & Ross Street,Pittsburgh,Pennsylvania,USA,route,GEOMETRIC_CENTER
The Silence of the Lambs,Soldiers and Sailors Museum and Memorial - 4141 Fifth Avenue,Pittsburgh,Pennsylvania,USA,street_address,ROOFTOP
Dances with Wolves,Badlands National Park,Interior,South Dakota,USA,locality,APPROXIMATE
Dances with Wolves,Jackson Hole,,Wyoming,USA,locality,APPROXIMATE
Dances with Wolves,Sage Creek Wilderness Area  Badlands National Park,Interior,South Dakota,USA,locality,APPROXIMATE
Dances with Wolves,Triple U Standing Butte Ranch - 26314 Tatanka Road,Fort Pierre,South Dakota,USA,route,GEOMETRIC_CENTER
Dances with Wolves,,Belle Fourche River,South Dakota,USA,route,GEOMETRIC_CENTER
Dances with Wolves,,Black Hills,South Dakota,USA,natural_feature,APPROXIMATE
Dances with Wolves,,Jackson,Wyoming,USA,locality,APPROXIMATE
Dances with Wolves,,Rapid City,South Dakota,USA,locality,APPROXIMATE
Dances with Wolves,Spearfish Canyon,Black Hills,South Dakota,USA,airport,APPROXIMATE
Dances with Wolves,,Interior,South Dakota,USA,locality,APPROXIMATE
Dances with Wolves,,Pierre,South Dakota,USA,locality,APPROXIMATE
Dances with Wolves,Tomahawk Drive,Fort Hays,Kansas,USA,administrative_area_level_1,APPROXIMATE
Dances with Wolves,,,Nebraska,USA,administrative_area_level_1,APPROXIMATE
Dances with Wolves,,Fort Pierre,South Dakota,USA,locality,APPROXIMATE
Driving Miss Daisy,822 Lullwater Road  Druid Hills,Atlanta,Georgia,USA,street_address,RANGE_INTERPOLATED
Driving Miss Daisy,Fulton Supply Company,Atlanta,Georgia,USA,locality,APPROXIMATE
Driving Miss Daisy,The Temple - 1589 Peachtree Street NE,Atlanta,Georgia,USA,point_of_interest,APPROXIMATE
Driving Miss Daisy,Sevananda Natural Foods Grocery  1111 Euclid Ave. NE,Atlanta,Georgia,USA,street_address,ROOFTOP
Driving Miss Daisy,Agnes Scott College - 141 E. College Avenue,Decatur,Georgia,USA,point_of_interest,APPROXIMATE
Driving Miss Daisy,Druid Hills,Atlanta,Georgia,USA,neighborhood,APPROXIMATE
Driving Miss Daisy,,Griffin,Georgia,USA,locality,APPROXIMATE
Driving Miss Daisy,,Decatur,Georgia,USA,locality,APPROXIMATE
Driving Miss Daisy,,Douglasville,Georgia,USA,locality,APPROXIMATE
Driving Miss Daisy,Castleberry Hill,Atlanta,Georgia,USA,neighborhood,APPROXIMATE
Rain Man,,Guthrie,Oklahoma,USA,locality,APPROXIMATE
Rain Man,Santa Ana Regional Transportation Center - 1000 E. Santa Ana Boulevard,Santa Ana,California,USA,locality,APPROXIMATE
Rain Man,,Cogar,Oklahoma,USA,locality,APPROXIMATE
Rain Man,,El Reno,Oklahoma,USA,locality,APPROXIMATE
Rain Man,,Hinton,Oklahoma,USA,locality,APPROXIMATE
Rain Man,Caesars Palace - 3570 Las Vegas Boulevard South,Las Vegas,Nevada,USA,street_address,ROOFTOP
Rain Man,Cincinnati-Northern Kentucky International Airport,Covington,Kentucky,USA,locality,APPROXIMATE
Birdman,Hotel Edison 228W 47th Street,New York,New York,USA,route,GEOMETRIC_CENTER
Birdman,St. James Theatre 246 West 44th Street,New York,New York,USA,street_address,ROOFTOP
Birdman,Kaufman Astoria Studios 3412 36th Street,New York,New York,USA,street_address,ROOFTOP
Birdman,West 43rd Street,New York,New York,USA,route,GEOMETRIC_CENTER
Birdman,Holy Cross School - 332 West 43rd Street,New York,New York,USA,point_of_interest,APPROXIMATE
Birdman,Times Square,New York,New York,USA,neighborhood,APPROXIMATE
12 Years a Slave,Madame John's Legacy,New Orleans,Louisiana,USA,locality,APPROXIMATE
12 Years a Slave,Felicity Plantation,Vacherie,Louisiana,USA,locality,APPROXIMATE
12 Years a Slave,St. Joseph Plantation,,Louisiana,USA,point_of_interest,APPROXIMATE
12 Years a Slave,Audubon Park,New Orleans,Louisiana,USA,park,APPROXIMATE
12 Years a Slave,Magnolia Plantation - Highway 311,Schriever,Louisiana,USA,route,GEOMETRIC_CENTER
12 Years a Slave,Bocage Plantation,Darrow,Louisiana,USA,locality,APPROXIMATE
12 Years a Slave,"Urbania, Lower Gardens District",New Orleans,Louisiana,USA,locality,APPROXIMATE
12 Years a Slave,Columns Hotel - 3811 St Charles Avenue,New Orleans,Louisiana,USA,street_address,ROOFTOP
12 Years a Slave,Destrehan,,Louisiana,USA,locality,APPROXIMATE
12 Years a Slave,Magnolia Lane Plantation - 2141 River Rd,Bridge City,Louisiana,USA,street_address,ROOFTOP
Argo,,Istanbul,,Turkey,locality,APPROXIMATE
Argo,Yeni Camii,Istanbul,,Turkey,route,GEOMETRIC_CENTER
Argo,Hagia Sophia,Istanbul,,Turkey,museum,APPROXIMATE
Argo,Veterans Hospital - 1611 Plummer Street,North Hills,California,USA,hospital,APPROXIMATE
Argo,Hagia Sophia,Istanbul,,Turkey,museum,APPROXIMATE
Argo,Smokehouse Restaurant - 4420 West Lakeside Drive,Burbank,California,USA,street_address,ROOFTOP
Argo,Blue Mosque,Istanbul,,Turkey,mosque,APPROXIMATE
Argo,Warner Brothers Burbank Studios - 4000 Warner Boulevard,Burbank,California,USA,street_address,ROOFTOP
Argo,Ontario International Airport - 2900 E. Airport Drive,Ontario,California,USA,point_of_interest,APPROXIMATE
Argo,1001 Bel Air Road,Los Angeles,California,USA,street_address,ROOFTOP
Argo,McLean,,Virginia,USA,locality,APPROXIMATE
Argo,Beverly Hills,,California,USA,locality,APPROXIMATE
Argo,Washington,,District of Columbia,USA,locality,APPROXIMATE
The Artist,Bradbury Building - 304 S. Broadway,Los Angeles,California,USA,point_of_interest,APPROXIMATE
The Artist,Fremont Mansion - 56 Fremont Place,Los Angeles,California,USA,street_address,ROOFTOP
The Artist,Hancock Park,Los Angeles,California,USA,neighborhood,APPROXIMATE
The Artist,Paramount Studios - 5555 Melrose Avenue,Los Angeles,California,USA,street_address,ROOFTOP
The Artist,104 Fremont Place,Los Angeles,California,USA,street_address,ROOFTOP
The Artist,The Ebell of Los Angeles - 743 South Lucerne Bouelvard,Los Angeles,California,USA,locality,APPROXIMATE
The Artist,Million Dollar Theatre - 307 S. Broadway,Los Angeles,California,USA,street_address,ROOFTOP
The Artist,,Pasadena,California,USA,locality,APPROXIMATE
The Artist,Red Studios  846 N. Cahuenga Blvd.,Los Angeles,California,USA,street_address,ROOFTOP
The Artist,"Warner Brothers Burbank Studios - 4000 Warner Boulevard, Burbank",Los Angeles,California,USA,street_address,ROOFTOP
The Artist,Cicada 617 Olive Street,Los Angeles,California,USA,street_address,RANGE_INTERPOLATED
The King's Speech,"Halton House, Halton",Wendover,Buckinghamshire,UK,premise,ROOFTOP
The King's Speech,33 Portland Place,Marylebone,London,UK,street_address,ROOFTOP
The King's Speech,Avenue Garden,Regent's Park,London,UK,route,GEOMETRIC_CENTER
The King's Speech,Battersea Power Station,Battersea,London,UK,premise,ROOFTOP
The King's Speech,Elland Road Stadium,Leeds,West Yorkshire,UK,locality,APPROXIMATE
The King's Speech,"Grattan Stadium, Odsal",Bradford,West Yorkshire,UK,neighborhood,APPROXIMATE
The King's Speech,Hatfield House,Hatfield,Hertfordshire,UK,park,APPROXIMATE
The King's Speech,Knebworth House,Stevenage,Hertfordshire,UK,point_of_interest,APPROXIMATE
The King's Speech,"Lancaster House, The Mall",St. James's,London,UK,route,GEOMETRIC_CENTER
The King's Speech,Queen Street Mill Textile Museum,Burnley,Lancashire,UK,museum,APPROXIMATE
The King's Speech,"Cumberland Lodge,  Windsor Great Park",Windsor,Berkshire,UK,locality,APPROXIMATE
The King's Speech,"Draper's Hall,  Throgmorton Avenue",Broadgate,London,UK,locality,APPROXIMATE
The King's Speech,Wendover Woods,,Buckinghamshire,UK,natural_feature,APPROXIMATE
The King's Speech,Elstree Studios,Borehamwood,Hertfordshire,UK,premise,ROOFTOP
The King's Speech,Ely Cathedral,Ely,Cambridgeshire,UK,church,APPROXIMATE
The King's Speech,Englefield House Theale,Reading,Berkshire,UK,premise,ROOFTOP
The King's Speech,Harley Street,Marylebone,London,UK,route,GEOMETRIC_CENTER
The King's Speech,Old Royal Naval College,Greenwich,London,UK,point_of_interest,APPROXIMATE
The King's Speech,Pullens Estate,Southwark,London,UK,premise,ROOFTOP
The Hurt Locker,,Amman,,Jordan,locality,APPROXIMATE
The Hurt Locker,,Vancouver,British Columbia,Canada,locality,APPROXIMATE
The Hurt Locker,,Langley,British Columbia,Canada,locality,APPROXIMATE
Slumdog Millionaire,,Agra,Uttar Pradesh,India,locality,APPROXIMATE
Slumdog Millionaire,,Mumbai,Maharashtra,India,locality,APPROXIMATE
Slumdog Millionaire,Juhu,Mumbai,Maharashtra,India,sublocality_level_1,APPROXIMATE
Slumdog Millionaire,ND Studios Karjat,Mumbai,Maharashtra,India,locality,APPROXIMATE
No Country for Old Men,,Marfa,Texas,USA,locality,APPROXIMATE
No Country for Old Men,Desert Sands Motel - 5000 Central Avenue SW,Albuquerque,New Mexico,USA,street_address,ROOFTOP
No Country for Old Men,,Las Vegas,New Mexico,USA,locality,APPROXIMATE
No Country for Old Men,Big Bend National Park,,Texas,USA,locality,APPROXIMATE
No Country for Old Men,Piedras Negras,,Coahu?â?¡la,Mexico,locality,APPROXIMATE
No Country for Old Men,Albuquerque,,New Mexico,USA,locality,APPROXIMATE
No Country for Old Men,El Camino Motel & Restaurant - 1152 North Grand Avenue,Las Vegas,New Mexico,USA,street_address,RANGE_INTERPOLATED
No Country for Old Men,,Santa Fe,New Mexico,USA,locality,APPROXIMATE
No Country for Old Men,College of Santa Fe - 1600 Saint Michaels Drive,Santa Fe,New Mexico,USA,point_of_interest,APPROXIMATE
No Country for Old Men,Desert Sands Motor Hotel - 5000 Central Ave SE,Albuquerque,New Mexico,USA,street_address,ROOFTOP
The Departed,SUNY Maritime College Bronx,New York,New York,USA,point_of_interest,APPROXIMATE
The Departed,,Quincy,Massachusetts,USA,locality,APPROXIMATE
The Departed,,Boston,Massachusetts,USA,locality,APPROXIMATE
The Departed,,Charlestown,Massachusetts,USA,neighborhood,APPROXIMATE
The Departed,Chinatown,Boston,Massachusetts,USA,neighborhood,APPROXIMATE
The Departed,Greenpoint Brooklyn,New York,New York,USA,neighborhood,APPROXIMATE
The Departed,,Lynn,Massachusetts,USA,locality,APPROXIMATE
The Departed,12 Farnsworth Street,Boston,Massachusetts,USA,street_address,ROOFTOP
The Departed,Fore River Ship Yard,Quincy,Massachusetts,USA,locality,APPROXIMATE
The Departed,Brooklyn Heights Brooklyn,New York,New York,USA,neighborhood,APPROXIMATE
The Departed,Erich Lindemann Mental Health Center - 25 Staniford Street,Boston,Massachusetts,USA,street_address,ROOFTOP
The Departed,Gerritsen Beach Brooklyn,New York,New York,USA,neighborhood,APPROXIMATE
The Departed,Sunset Park  Brooklyn,New York,New York,USA,neighborhood,APPROXIMATE
The Departed,White Plains,New York,New York,USA,locality,APPROXIMATE
Crash,Port of Los Angeles,Los Angeles,California,USA,natural_feature,APPROXIMATE
Crash,"3500 S. Gaffey Street,  San Pedro",Los Angeles,California,USA,street_address,RANGE_INTERPOLATED
Crash,5100 Costello Avenue  Sherman Oaks,Los Angeles,California,USA,street_address,RANGE_INTERPOLATED
Crash,Broadway & Ord Street,Los Angeles,California,USA,intersection,APPROXIMATE
Crash,"Broxton Avenue,  Westwood Village,  Westwood",Los Angeles,California,USA,route,GEOMETRIC_CENTER
Crash,Carney's Restaurant - 12601 Ventura Boulevard,Los Angeles,California,USA,street_address,ROOFTOP
Crash,Westwood,Los Angeles,California,USA,neighborhood,APPROXIMATE
Crash,San Fernando Valley,Los Angeles,California,USA,colloquial_area,APPROXIMATE
Crash,,Santa Monica,California,USA,locality,APPROXIMATE
Crash,Ventura Ct.,Los Angeles,California,USA,route,GEOMETRIC_CENTER
Chariots of Fire,Eton College,Eton,Berkshire,UK,point_of_interest,APPROXIMATE
Chariots of Fire,Goldenacre,Inverleith,Edinburgh,UK,premise,ROOFTOP
Chariots of Fire,Hall Barn,Beaconsfield,Buckinghamshire,UK,premise,ROOFTOP
Chariots of Fire,Holyrood Park,Edinburgh,UK,UK,park,APPROXIMATE
Chariots of Fire,Inverleith,Edinburgh,UK,UK,route,GEOMETRIC_CENTER
Chariots of Fire,"King's College Chapel, King's College, Cambridge University",Cambridge,Cambridgeshire,UK,university,APPROXIMATE
Chariots of Fire,Liverpool Town Hall,Liverpool,Merseyside,UK,city_hall,APPROXIMATE
Chariots of Fire,Town Hall,Liverpool,Merseyside,UK,city_hall,APPROXIMATE
Chariots of Fire,York Station,York,North Yorkshire,UK,fire_station,APPROXIMATE
Chariots of Fire,Ruskin Drive Sports Ground,St.Helens,Merseyside,UK,locality,APPROXIMATE
Ordinary People,Lake Forest High School - 1285 N. McKinley Road,Lake Forest,Illinois,USA,point_of_interest,APPROXIMATE
Ordinary People,,Northbrook,Illinois,USA,locality,APPROXIMATE
Ordinary People,Walker Brothers Original Pancake House - 153 Green Bay Road,Wilmette,Illinois,USA,premise,ROOFTOP
Ordinary People,,Chicago,Illinois,USA,locality,APPROXIMATE
Ordinary People,,Fort Sheridan,Illinois,USA,locality,APPROXIMATE
Ordinary People,,Highland Park,Illinois,USA,locality,APPROXIMATE
Ordinary People,,Lake Bluff,Illinois,USA,locality,APPROXIMATE
Ordinary People,,Lake Forest,Illinois,USA,locality,APPROXIMATE
Ordinary People,"Paramount Studios - 5555 Melrose Avenue,  Hollywood",Los Angeles,California,USA,street_address,ROOFTOP
Ordinary People,Apple Valley,,California,USA,locality,APPROXIMATE
Kramer vs. Kramer,"Chrysler Building - 405 Lexington Avenue,  Manhattan",New York City,New York,USA,point_of_interest,APPROXIMATE
Kramer vs. Kramer,"Central Park,  Manhattan",New York City,New York,USA,neighborhood,APPROXIMATE
Kramer vs. Kramer,"Federal Hall,  Wall Street,  Manhattan",New York City,New York,USA,museum,APPROXIMATE
Kramer vs. Kramer,"Financial District,  Manhattan",New York City,New York,USA,neighborhood,APPROXIMATE
Kramer vs. Kramer,"Tweed Courthouse - 52 Chambers Street,  Manhattan",New York City,New York,USA,courthouse,APPROXIMATE
Kramer vs. Kramer,"Wall Street,  Manhattan",New York City,New York,USA,route,GEOMETRIC_CENTER
The Deer Hunter,,Bangkok,,Thailand,locality,APPROXIMATE
The Deer Hunter,,Clairton,Pennsylvania,USA,locality,APPROXIMATE
The Deer Hunter,,Follansbee,West Virginia,USA,locality,APPROXIMATE
The Deer Hunter,,Mingo Junction,Ohio,USA,locality,APPROXIMATE
The Deer Hunter,,River Kwai,,Thailand,natural_feature,APPROXIMATE
The Deer Hunter,Heather Meadows,Mount Baker,Washington,USA,natural_feature,APPROXIMATE
The Deer Hunter,Bowladrome Lanes - 56 State Street,Struthers,Ohio,USA,point_of_interest,APPROXIMATE
The Deer Hunter,,Katchanburi,,Thailand,administrative_area_level_1,APPROXIMATE
The Deer Hunter,McKeesport,Pennsylvania,,USA,locality,APPROXIMATE
The Deer Hunter,Mill Creek Park,Youngstown,Ohio,USA,park,APPROXIMATE
The Deer Hunter,Nooksack Falls,Mount Baker,Washington,USA,natural_feature,APPROXIMATE
The Deer Hunter,St. Theodosius Russian Orthodox Church - 733 Starkweather Avenue,Cleveland,Ohio,USA,church,APPROXIMATE
The Deer Hunter,Whatcom County,Washington,,USA,administrative_area_level_2,APPROXIMATE
The Deer Hunter,993 N. 7th Street,Steubenville,Ohio,USA,street_address,RANGE_INTERPOLATED
The Deer Hunter,Don Mueang International Airport,Don Mueang,Bangkok,Thailand,airport,APPROXIMATE
The Deer Hunter,Duquesne Heights,,Pennsylvania,USA,neighborhood,APPROXIMATE
The Deer Hunter,Lake Chelan,Washington,,USA,natural_feature,APPROXIMATE
The Deer Hunter,Lemko Hall - 2335 W. Eleventh Street,Cleveland,Ohio,USA,street_address,ROOFTOP
The Deer Hunter,Mount Baker,Washington,,USA,natural_feature,APPROXIMATE
The Deer Hunter,Steubenville,,Ohio,USA,locality,APPROXIMATE
The Deer Hunter,Throng Wad Road,Bangkok,,Thailand,locality,APPROXIMATE
The Deer Hunter,US Steel Widowmaker Central Blast Furnace,Cleveland,Ohio,USA,locality,APPROXIMATE
The Deer Hunter,,Weirton,West Virginia,USA,locality,APPROXIMATE
The Deer Hunter,,Youngstown,Ohio,USA,locality,APPROXIMATE
The Deer Hunter,,Pittsburgh,Pennsylvania,USA,locality,APPROXIMATE
The Deer Hunter,,Cleveland,Ohio,USA,locality,APPROXIMATE
The Deer Hunter,Commercial Street,Mingo Junction,Ohio,USA,route,GEOMETRIC_CENTER
The Deer Hunter,Louis Stokes VA Medical Center - 10701 East Boulevard,Cleveland,Ohio,USA,doctor,APPROXIMATE
The Deer Hunter,McKeesport and Versailles Cemetery - 1608 Fifth Avenue,McKeesport,Pennsylvania,USA,street_address,RANGE_INTERPOLATED
The Deer Hunter,Mingo Junction,,Ohio,USA,locality,APPROXIMATE
The Deer Hunter,St.Gabriel's College - 565 Samsen Road,Bangkok,,Thailand,locality,APPROXIMATE
The Deer Hunter,Starkweather Avenue,Cleveland,Ohio,USA,route,GEOMETRIC_CENTER
The Deer Hunter,,Struthers,Ohio,USA,locality,APPROXIMATE
Annie Hall,"Beekman Cinema - 1254 2nd Avenue,  Manhattan",New York City,New York,USA,street_address,RANGE_INTERPOLATED
Annie Hall,"Filmways Studios - 246 East 127th Street, East Harlem",New York City,New York,USA,street_address,RANGE_INTERPOLATED
Annie Hall,Sunset Blvd. Hollywood,Los Angeles,California,USA,route,GEOMETRIC_CENTER
Annie Hall,"Thalia Cinema - 250 West 95th Street, Upper West Side",New York City,New York,USA,street_address,RANGE_INTERPOLATED
Annie Hall,"2nd Avenue,  Manhattan",New York City,New York,USA,route,GEOMETRIC_CENTER
Annie Hall,3rd Avenue   Bronx,New York City,New York,USA,route,GEOMETRIC_CENTER
Annie Hall,"70th Street,  Manhattan",New York City,New York,USA,route,GEOMETRIC_CENTER
Annie Hall,"Astroland Park,  Coney Island, Brooklyn",New York City,New York,USA,amusement_park,APPROXIMATE
Annie Hall,"Bethesda Fountain, Central Park",New York City,New York,USA,neighborhood,APPROXIMATE
Annie Hall,Cajun Bistro - 8301 Sunset Blvd.,West Hollywood,California,USA,street_address,ROOFTOP
Annie Hall,"Central Park,  Manhattan",New York City,New York,USA,neighborhood,APPROXIMATE
Annie Hall,Long Island,New York,New York,USA,natural_feature,APPROXIMATE
Annie Hall,New York Theater,New York City,New York,USA,museum,APPROXIMATE
Annie Hall,"Plaza Hotel - 750 Fifth Avenue,  Manhattan",New York City,New York,USA,street_address,RANGE_INTERPOLATED
Annie Hall,South Shore,Long Island,New York,USA,route,GEOMETRIC_CENTER
Annie Hall,The Hamptons,Long Island,New York,USA,colloquial_area,APPROXIMATE
Annie Hall,"Wall Street Tennis Club,  Wall Street",New York City,New York,USA,route,GEOMETRIC_CENTER
Annie Hall,W. Century Blvd. & Airport Blvd,Los Angeles,California,USA,intersection,APPROXIMATE
Annie Hall,"5th Avenue,  Manhattan",New York City,New York,USA,point_of_interest,APPROXIMATE
Annie Hall,,Beverly Hills,California,USA,locality,APPROXIMATE
Annie Hall,,Palos Verdes Peninsula,California,USA,colloquial_area,APPROXIMATE
Annie Hall,"Steve's Famous Clam Bar - 515 Atlantic Avenue,  Brooklyn",New York City,New York,USA,street_address,ROOFTOP
Annie Hall,"Surf Avenue,",New York City,New York,USA,route,GEOMETRIC_CENTER
Annie Hall,"Thunderbolt Rollercoaster,  Coney Island, Brooklyn",New York City,New York,USA,neighborhood,APPROXIMATE
Annie Hall,"Upper West Side,  Manhattan",New York City,New York,USA,neighborhood,APPROXIMATE
Annie Hall,"Wall Street,  Manhattan",New York City,New York,USA,route,GEOMETRIC_CENTER
Annie Hall,,West Hollywood,California,USA,locality,APPROXIMATE
Rocky,"1818 East Tusculum Street,  Kensington",North Philadelphia,Pennsylvania,USA,street_address,ROOFTOP
Rocky,Pat's King of Steaks - 1237 S. Passyunk Avenue,Philadelphia,Pennsylvania,USA,street_address,ROOFTOP
Rocky,Fairmount Park,Philadelphia,Pennsylvania,USA,neighborhood,APPROXIMATE
Rocky,Resurrection Gym - 1114 S. Lorena Street,East Los Angeles,California,USA,street_address,ROOFTOP
Rocky,Shamrock Meats - 3461 E. Vernon Avenue,Vernon,California,USA,street_address,ROOFTOP
Rocky,"Main Street Gym - 318?é?¢ S Main St, Downtown",Los Angeles,California,USA,route,GEOMETRIC_CENTER
Rocky,Philadelphia Museum of Art - 2600 Benjamin Franklin Parkway,Philadelphia,Pennsylvania,USA,museum,APPROXIMATE
Rocky,2822-2824 Rosehill St,Philadelphia,Pensylvannia,USA,street_address,ROOFTOP
Rocky,Kensington,North Philadelphia,Pennsylvania,USA,neighborhood,APPROXIMATE
Rocky,"Los Angeles Sports Arena - 3939 S. Figueroa Street,  Exposition Park",Los Angeles,California,USA,premise,ROOFTOP
Rocky,"Olympic Auditorium - 1801 S. Grand Avenue,  Downtown",Los Angeles,California,USA,street_address,ROOFTOP
Rocky,Philadelphia City Hall - 1450 John F. Kennedy Blvd.,Philadelphia,Pennsylvania,USA,city_hall,APPROXIMATE
Rocky,North Christopher Columbus Blvd,Philadelphia,Pennsylvania,USA,route,GEOMETRIC_CENTER
Rocky,S. 9th Street & Washington Avenue,Philadelphia,Pennsylvania,USA,intersection,APPROXIMATE
Ben-Hur,Canale Monterano,Rome,Lazio,Italy,locality,APPROXIMATE
Ben-Hur,,Frosinone,Lazio,Italy,locality,APPROXIMATE
Ben-Hur,Metro-Goldwyn-Mayer Studios - 10202 W. Washington Blvd.,Culver City,California,USA,street_address,ROOFTOP
Ben-Hur,Fogliano,Latina,Lazio,Italy,locality,APPROXIMATE
Ben-Hur,Arcinazzo Romano,Frosinone,Lazio,Italy,locality,APPROXIMATE
Ben-Hur,"Cinecitt?â?á Studios,  Cinecitt?â?á",Rome,Lazio,Italy,route,GEOMETRIC_CENTER
Gigi,Auberge de la Mouti?â?¿re - 14 Rue Mouti?â?¿re,Montfort-l'Amaury,Yvelines,France,street_address,ROOFTOP
Gigi,Bois de Boulogne,Paris 16,Paris,France,park,APPROXIMATE
Gigi,Hollywood,Los Angeles,California,USA,sublocality_level_1,APPROXIMATE
Gigi,Jardin des Tuileries,Paris 1,Paris,France,park,APPROXIMATE
Gigi,Jardin du Luxembourg,Paris 6,Paris,France,park,APPROXIMATE
Gigi,Maxim's - 3 Rue Royale,Paris 8,Paris,France,museum,APPROXIMATE
Gigi,Metro-Goldwyn-Mayer Studios - 10202 W. Washington Blvd.,Culver City,California,USA,street_address,ROOFTOP
Gigi,Mus?â?®e Jacquemart-Andr?â?® - 158 Boulevard Haussmann,Paris 8,Paris,France,museum,APPROXIMATE
Gigi,Palace De Glace,Paris,,France,locality,APPROXIMATE
Gigi,Parc Monceau,Paris 8,Paris,France,park,APPROXIMATE
Gigi,Place Furstenberg,Paris 6,Paris,France,route,GEOMETRIC_CENTER
Gigi,Pont Alexandre III,Paris 7,Paris,France,route,GEOMETRIC_CENTER
Gigi,"Tour Eiffel,  Champ de Mars",Paris 7,Paris,France,premise,APPROXIMATE
Gigi,Venice Beach,Los Angeles,California,USA,natural_feature,APPROXIMATE
The Bridge on the River Kwai,,Kelani River,,Sri Lanka,point_of_interest,APPROXIMATE
The Bridge on the River Kwai,Ambepussa,,,Sri Lanka,locality,APPROXIMATE
The Bridge on the River Kwai,Peradeniya Botanical Gardens,,Central Province,Sri Lanka,park,APPROXIMATE
The Bridge on the River Kwai,,Colombo,Western Province,Sri Lanka,locality,APPROXIMATE
The Bridge on the River Kwai,Government Rest House,Kitulgala,,Sri Lanka,locality,APPROXIMATE
The Bridge on the River Kwai,,Kandy,Central Province,Sri Lanka,locality,APPROXIMATE
The Bridge on the River Kwai,,,Kitulgala,Sri Lanka,locality,APPROXIMATE
The Bridge on the River Kwai,,,Mahara,Sri Lanka,sublocality_level_1,APPROXIMATE
The Bridge on the River Kwai,Mount Lavinia Hotel - 100 Hotel Road,Mount Lavinia,Western Province,Sri Lanka,neighborhood,APPROXIMATE
The Bridge on the River Kwai,Kalugamuwa,Gelioya,Kandy,Sri Lanka,route,GEOMETRIC_CENTER
Around the World in Eighty Days,,Chinch?â??n,Madrid,Spain,locality,APPROXIMATE
Around the World in Eighty Days,Plaza Mayor,Chinch?â??n,Madrid,Spain,route,GEOMETRIC_CENTER
Around the World in Eighty Days,,Hong Kong,,China,country,APPROXIMATE
Around the World in Eighty Days,,Newport Beach,California,USA,locality,APPROXIMATE
Around the World in Eighty Days,Yokohama,Kanagawa,Honshu,Japan,natural_feature,APPROXIMATE
Around the World in Eighty Days,,,Bangkok,Thailand,locality,APPROXIMATE
Around the World in Eighty Days,,Toledo,Castilla-La Mancha,Spain,locality,APPROXIMATE
Around the World in Eighty Days,,Chelsea,London,UK,neighborhood,APPROXIMATE
Around the World in Eighty Days,,Durango,Colorado,USA,locality,APPROXIMATE
Around the World in Eighty Days,Durango-Silverton Railway Line,Colorado,,USA,administrative_area_level_1,APPROXIMATE
Around the World in Eighty Days,Hyde Park,,London,UK,park,APPROXIMATE
Around the World in Eighty Days,"Iverson Ranch - 1 Iverson Lane,  Chatsworth",Los Angeles,California,USA,route,GEOMETRIC_CENTER
Around the World in Eighty Days,,Lawton,Oklahoma,USA,locality,APPROXIMATE
Around the World in Eighty Days,Lower Grosvenor Place,Westminster,London,UK,route,GEOMETRIC_CENTER
Around the World in Eighty Days,,,New Mexico,USA,administrative_area_level_1,APPROXIMATE
Around the World in Eighty Days,,,,Pakistan,country,APPROXIMATE
Around the World in Eighty Days,"Rotten Row, Hyde Park",Hyde Park,London,UK,locality,APPROXIMATE
Around the World in Eighty Days,"Rue de Castiglione,  Paris 1",Paris,,France,route,GEOMETRIC_CENTER
Around the World in Eighty Days,"Rue de Rivoli, Paris 1",Paris,,France,route,GEOMETRIC_CENTER
Around the World in Eighty Days,St. James's,London,,UK,neighborhood,APPROXIMATE
Around the World in Eighty Days,"The Reform Club,  Pall Mall,  St. James's",,London,UK,route,GEOMETRIC_CENTER
Around the World in Eighty Days,,,,Persian Gulf,natural_feature,APPROXIMATE
Around the World in Eighty Days,"The Grenadier Pub,  18 Wilton Row",London,,UK,premise,ROOFTOP
Around the World in Eighty Days,5 Lower Grosvenor Place,Westminster,London,UK,street_address,ROOFTOP
Around the World in Eighty Days,Alabama Hills,Lone Pine,California,USA,sublocality_level_1,APPROXIMATE
Around the World in Eighty Days,Alamogordo,New Mexico,USA,,locality,APPROXIMATE
Around the World in Eighty Days,Chatsworth,Los Angeles,California,USA,sublocality_level_1,APPROXIMATE
Around the World in Eighty Days,Denver & Rio Grande Western Railroad,Durango,Colorado,USA,locality,APPROXIMATE
Around the World in Eighty Days,Elstree Studios,Borehamwood,Hertfordshire,UK,premise,ROOFTOP
Around the World in Eighty Days,Gare du Nord,Paris 10,Paris,France,train_station,APPROXIMATE
Around the World in Eighty Days,"Little Europe,  Backlot,  Universal Studios - 100 Universal City Plaza",Universal City,California,USA,street_address,ROOFTOP
Around the World in Eighty Days,Pall Mall,St. James's,London,UK,route,GEOMETRIC_CENTER
Around the World in Eighty Days,,Paris,,France,locality,APPROXIMATE
Around the World in Eighty Days,Place Vend?â??me,Paris 1,Paris,France,neighborhood,APPROXIMATE
Around the World in Eighty Days,"RKO Studios - 780 Gower Street,  Hollywood",Los Angeles,California,USA,street_address,ROOFTOP
Around the World in Eighty Days,,San Francisco,California,USA,locality,APPROXIMATE
Around the World in Eighty Days,,San Juan Mountains,Colorado,USA,natural_feature,APPROXIMATE
Around the World in Eighty Days,,Silverton,Colorado,USA,locality,APPROXIMATE
Around the World in Eighty Days,,Tokyo,,Japan,colloquial_area,APPROXIMATE
Around the World in Eighty Days,Upper Cheyne Row,Chelsea,London,UK,route,GEOMETRIC_CENTER
Around the World in Eighty Days,Victoria Square,Westminster,London,UK,route,GEOMETRIC_CENTER
Around the World in Eighty Days,Wellington Barracks,Westminster,London,UK,museum,APPROXIMATE
Around the World in Eighty Days,,Westminster,London,UK,administrative_area_level_3,APPROXIMATE
Around the World in Eighty Days,White Sands Missile Range,Alamogordo,New Mexico,USA,route,GEOMETRIC_CENTER
Around the World in Eighty Days,"20th Century Fox Studios - 10201 Pico Blvd.,  Century City",Los Angeles,California,USA,street_address,ROOFTOP
Around the World in Eighty Days,Hollywood,Los Angeles,California,USA,sublocality_level_1,APPROXIMATE
Around the World in Eighty Days,,Mount Fuji,Shizuoka,Japan,natural_feature,APPROXIMATE
Around the World in Eighty Days,RKO-Path?â?® Studios - 9336 Washington Blvd.,Culver City,California,USA,street_address,ROOFTOP
Around the World in Eighty Days,Universal Studios - 100 Universal City Plaza,Universal City,California,USA,amusement_park,APPROXIMATE
Around the World in Eighty Days,Warner Brothers Burbank Studios - 4000 Warner Boulevard,Burbank,California,USA,street_address,ROOFTOP
Marty,"187th Street and Arthur Avenue,  The Bronx",New York City,New York,USA,intersection,APPROXIMATE
Marty,"The Grand Councourse,  The Bronx",New York City,New York,USA,route,GEOMETRIC_CENTER
Marty,"IRT Third Avenue Elevated Train Line,  The Bronx",New York City,New York,USA,sublocality_level_1,APPROXIMATE
Marty,Samuel Goldwyn Studios - 7200 Santa Monica Boulevard,West Hollywood,California,USA,street_address,RANGE_INTERPOLATED
Marty,"Gun Hill Road & White Plains Road, Bronx",New York City,New York,USA,intersection,APPROXIMATE
On the Waterfront,,Hoboken,New Jersey,USA,locality,APPROXIMATE
On the Waterfront,Hoboken Railway Station,Hoboken,New Jersey,USA,transit_station,APPROXIMATE
On the Waterfront,Our Lady Of Grace Church - 400 Willow Avenue,Hoboken,New Jersey,USA,church,APPROXIMATE
On the Waterfront,St Peter and St Paul Church - 400 Hudson Street,Hoboken,New Jersey,USA,street_address,ROOFTOP
On the Waterfront,Court Street,Hoboken,New Jersey,USA,route,GEOMETRIC_CENTER
On the Waterfront,Hoboken Waterfront,Hoboken,New Jersey,USA,point_of_interest,APPROXIMATE
On the Waterfront,Hudson Street,Hoboken,New Jersey,USA,route,GEOMETRIC_CENTER
On the Waterfront,,New York City,New York,USA,locality,APPROXIMATE
On the Waterfront,"Stevens Park,  Hudson Street",Hoboken,New Jersey,USA,route,APPROXIMATE
On the Waterfront,Willow Avenue,Hoboken,New Jersey,USA,route,GEOMETRIC_CENTER
From Here to Eternity,Honolulu,O'ahu,Hawaii,USA,natural_feature,APPROXIMATE
From Here to Eternity,Diamond Head,O'ahu,Hawaii,USA,route,GEOMETRIC_CENTER
From Here to Eternity,"Royal Hawaiian Hotel - 2259 Kalakava Avenue,  Honolulu",O'ahu,Hawaii,USA,natural_feature,APPROXIMATE
From Here to Eternity,"Schofield Barracks,  Wilkina Drive",O'ahu,Hawaii,USA,natural_feature,APPROXIMATE
The Lord of the Rings: The Return of the King,Fernside,Featherston,Wairarapa,New Zealand,,
The Lord of the Rings: The Return of the King,Tongariro National Park,,,New Zealand,,
Shakespeare in Love,Holkham Hall and Estate,,Norfolk,UK,,
Chariots of Fire,Cafe Royal,Edinburgh,,UK,,
Titanic,Titanic wreck,,,North Atlantic Ocean,,
Out of Africa,Shaba National Game Reserve,,,Kenya,,
Lawrence of Arabia,,Jebel Tubeiq,,Saudi Arabia,,
From Here to Eternity,Halona Cove,O'ahu,Hawaii,USA,,
